{"version": 0.6, "generator": "Overpass API 0.7.62.4 2390de5a", "osm3s": {"timestamp_osm_base": "2025-02-04T06:57:31Z", "copyright": "The data included in this document is from www.openstreetmap.org. The data is made available under ODbL."}, "elements": [{"type": "node", "id": 2805547265, "lat": 31.0392564, "lon": 83.9989106, "tags": {"alt_name": "\u9686\u560e\u5c14;Longga'er Xiang;Longga'er", "alt_name:en": "Lunggar", "capital": "8", "name": "\u9686\u683c\u5c14\u4e61", "name:bo": "\u0f63\u0f74\u0f44\u0f0b\u0f51\u0f40\u0f62", "name:bo-Latn-wylie": "lung dkar", "name:en": "Lungkar", "name:ru": "\u041b\u0443\u043d\u0433\u0433\u0430\u0440", "name:zh": "\u9686\u683c\u5c14\u4e61", "official_name": "\u9686\u560e\u5c14\u4e61", "place": "town", "place:CN": "township", "source": "http://www.stats.gov.cn/tjsj/tjbz/tjyqhdmhcxhfdm/2020/54/02/540232.html", "wikidata": "Q14296109", "wikipedia": "zh:\u9686\u560e\u5c14\u4e61"}}, {"type": "node", "id": 3704018107, "lat": 31.3052886, "lon": 84.1261374, "tags": {"alt_name": "\u5e15\u739b;Barma", "capital": "8", "name": "\u5e15\u6c5f\u4e61", "name:bo": "\u0f56\u0f62\u0f0b\u0f58\u0f0b", "name:en": "Pama", "name:zh": "\u5e15\u6c5f\u4e61", "official_name": "\u5e15\u739b\u4e61", "place": "town", "place:CN": "township", "source": "http://www.stats.gov.cn/tjsj/tjbz/tjyqhdmhcxhfdm/2020/54/02/540232.html", "source:name": "GNS", "wikidata": "Q7139131", "wikipedia": "zh:\u5e15\u6c5f\u4e61"}}, {"type": "node", "id": 3704018108, "lat": 31.277958, "lon": 84.3065492, "tags": {"place": "hamlet"}}]}