{"version": 0.6, "generator": "Overpass API 0.7.62.4 2390de5a", "osm3s": {"timestamp_osm_base": "2025-02-04T06:55:30Z", "copyright": "The data included in this document is from www.openstreetmap.org. The data is made available under ODbL."}, "elements": [{"type": "node", "id": 31148043, "lat": 27.7076096, "lon": 85.3437482}, {"type": "node", "id": 31148056, "lat": 27.7059826, "lon": 85.3487359}, {"type": "node", "id": 31151023, "lat": 27.7089776, "lon": 85.3305466, "tags": {"name": "\u091c\u094d\u091e\u093e\u0928\u0947\u0936\u094d\u0935\u0930", "name:en": "Gyaneshwar", "name:ne": "\u091c\u094d\u091e\u093e\u0928\u0947\u0936\u094d\u0935\u0930", "place": "neighbourhood"}}, {"type": "node", "id": 267684825, "lat": 28.1590564, "lon": 85.0548336, "tags": {"name": "Borang", "place": "town"}}, {"type": "node", "id": 268864226, "lat": 27.9731085, "lon": 85.1859528, "tags": {"alt_name": "Betr\u0101wati", "name": "Betrawati", "place": "village", "source:alt_name": "GNS"}}, {"type": "node", "id": 269567638, "lat": 28.1771015, "lon": 85.0852123, "tags": {"name": "Sertung", "place": "village"}}, {"type": "node", "id": 269569692, "lat": 28.129782, "lon": 85.3121197, "tags": {"name": "Thulo Barkhu", "place": "village"}}, {"type": "node", "id": 279339372, "lat": 27.8325156, "lon": 85.2388622, "tags": {"name": "\u0930\u093e\u0928\u0940\u092a\u094c\u0935\u093e", "name:en": "Ranipauwa", "name:ne": "\u0930\u093e\u0928\u0940\u092a\u094c\u0935\u093e", "place": "village", "source": "GNS"}}, {"type": "node", "id": 279339374, "lat": 27.8116875, "lon": 84.9617538, "tags": {"name": "\u092e\u093e\u0938\u091f\u093e\u0930", "name:en": "Mastar", "name:ne": "\u092e\u093e\u0938\u091f\u093e\u0930", "place": "hamlet"}}, {"type": "node", "id": 279374588, "lat": 27.7957177, "lon": 84.9963728, "tags": {"name": "Gardo Khola", "place": "neighbourhood"}}, {"type": "node", "id": 279374592, "lat": 27.7973963, "lon": 85.0004606, "tags": {"name": "\u0917\u0932\u094d\u091b\u0940", "name:en": "Galchhi", "name:ne": "\u0917\u0932\u094d\u091b\u0940", "place": "town"}}, {"type": "node", "id": 480426151, "lat": 27.7283536, "lon": 85.3327298, "tags": {"name": "\u0915\u093f\u0930\u0923 \u091a\u094b\u0915", "name:en": "Kiran Chok", "name:ne": "\u0915\u093f\u0930\u0923 \u091a\u094b\u0915", "place": "neighbourhood"}}, {"type": "node", "id": 480427050, "lat": 27.7184435, "lon": 85.3334579, "tags": {"name": "\u0922\u0932\u094d\u0915\u0941 \u091a\u094b\u0915", "name:en": "Dhalku Chowk", "name:ne": "\u0922\u0932\u094d\u0915\u0941 \u091a\u094b\u0915", "place": "neighbourhood"}}, {"type": "node", "id": 943251173, "lat": 27.7109156, "lon": 85.3493621}, {"type": "node", "id": 947910115, "lat": 27.7112071, "lon": 85.3086148, "tags": {"name": "Chhetrapati", "place": "locality"}}, {"type": "node", "id": 1144695433, "lat": 27.71517, "lon": 85.3258025, "tags": {"name": "\u0928\u093e\u0930\u093e\u092f\u0923 \u091a\u094c\u0930", "name:en": "Narayan Chaur", "name:ne": "\u0928\u093e\u0930\u093e\u092f\u0923 \u091a\u094c\u0930", "place": "suburb"}}, {"type": "node", "id": 1145267936, "lat": 27.7171465, "lon": 85.3466713, "tags": {"addr:city": "Kathmandu", "alt_name": "Chabel", "alt_name:ne": "\u091a\u093e\u092c\u0947\u0932", "is_in": "Kathmandu", "name": "\u091a\u093e\u092c\u0939\u093f\u0932", "name:en": "Chabahil", "name:ne": "\u091a\u093e\u092c\u0939\u093f\u0932", "place": "suburb", "wikidata": "Q5065997", "wikipedia": "en:Chabahil"}}, {"type": "node", "id": 1274031223, "lat": 27.7057939, "lon": 85.3472879, "tags": {"name": "\u092a\u093f\u0919\u094d\u0917\u0932\u0938\u094d\u0925\u093e\u0928", "name:en": "Pingalsthan", "name:ne": "\u092a\u093f\u0919\u094d\u0917\u0932\u0938\u094d\u0925\u093e\u0928", "place": "locality"}}, {"type": "node", "id": 1280126097, "lat": 27.7075505, "lon": 85.3487549}, {"type": "node", "id": 1280126224, "lat": 27.7060924, "lon": 85.3493909}, {"type": "node", "id": 1280126239, "lat": 27.7058959, "lon": 85.3481248}, {"type": "node", "id": 1349697740, "lat": 27.717028, "lon": 85.311256, "tags": {"name": "\u0920\u092e\u0947\u0932", "name:bn": "\u09a5\u09be\u09ae\u09c7\u09b2", "name:en": "Thamel", "name:ne": "\u0920\u092e\u0947\u0932", "name:zh": "\u6cf0\u7c73\u5c14\u533a", "place": "suburb", "wikidata": "Q2467967", "wikipedia": "en:Thamel"}}, {"type": "node", "id": 1383284250, "lat": 27.7056762, "lon": 85.3415089, "tags": {"name": "\u092c\u0924\u094d\u0924\u0940\u0938\u092a\u0941\u0924\u0932\u0940", "name:en": "Battisputali", "name:ne": "\u092c\u0924\u094d\u0924\u0940\u0938\u092a\u0941\u0924\u0932\u0940", "name:new": "\u092c\u0924\u094d\u0924\u0940\u0938\u092a\u0941\u0924\u0932\u0940", "place": "locality"}}, {"type": "node", "id": 1395061448, "lat": 27.7058538, "lon": 85.3478595}, {"type": "node", "id": 1659470421, "lat": 27.8156544, "lon": 85.2469602, "tags": {"name": "Kakani", "name:en": "Kakani", "name:ne": "\u0915\u0915\u0928\u0940", "place": "village", "wikidata": "Q3418337", "wikipedia": "en:Kakani"}}, {"type": "node", "id": 1772109891, "lat": 27.7215082, "lon": 85.3207646, "tags": {"name": "\u0932\u093e\u091c\u093f\u092e\u094d\u092a\u093e\u091f", "name:en": "Lazimpat", "name:ne": "\u0932\u093e\u091c\u093f\u092e\u094d\u092a\u093e\u091f", "place": "suburb", "wikidata": "Q6506006", "wikipedia": "en:Lazimpat"}}, {"type": "node", "id": 1772109893, "lat": 27.7773873, "lon": 85.3621422, "tags": {"name": "\u092c\u0942\u0922\u093e\u0928\u0940\u0932\u0915\u0923\u094d\u0920", "name:en": "Budhanilkantha", "name:kn": "\u0cac\u0cc1\u0ca1\u0ca8\u0cc0\u0cb2\u0c95\u0c82\u0ca0", "name:ne": "\u092c\u0942\u0922\u093e\u0928\u0940\u0932\u0915\u0923\u094d\u0920", "place": "town", "wikidata": "Q2385194", "wikipedia": "en:Budanilkantha"}}, {"type": "node", "id": 1772109894, "lat": 27.7482297, "lon": 85.3475649, "tags": {"name": "\u0917\u094b\u0932\u094d\u092b\u0941\u091f\u093e\u0930", "name:en": "Golphutar", "name:ne": "\u0917\u094b\u0932\u094d\u092b\u0941\u091f\u093e\u0930", "place": "suburb"}}, {"type": "node", "id": 1772109895, "lat": 27.7246028, "lon": 85.3310167, "tags": {"name": "\u092c\u093e\u0932\u0941\u0935\u093e\u091f\u093e\u0930", "name:en": "Baluwatar", "name:ne": "\u092c\u093e\u0932\u0941\u0935\u093e\u091f\u093e\u0930", "place": "suburb", "wikidata": "Q4853109"}}, {"type": "node", "id": 1772109896, "lat": 27.7292515, "lon": 85.3247457, "tags": {"name": "\u092a\u093e\u0928\u0940\u092a\u094b\u0916\u0930\u0940", "name:en": "Panipokhari", "name:ne": "\u092a\u093e\u0928\u0940\u092a\u094b\u0916\u0930\u0940", "place": "suburb"}}, {"type": "node", "id": 1827382607, "lat": 27.7298123, "lon": 85.3468227, "tags": {"name": "\u0938\u0941\u0915\u0947\u0927\u093e\u0930\u093e", "name:en": "Sukedhara", "name:ne": "\u0938\u0941\u0915\u0947\u0927\u093e\u0930\u093e", "place": "suburb"}}, {"type": "node", "id": 1831891602, "lat": 27.7378455, "lon": 85.3329452, "tags": {"name": "\u0928\u093e\u0930\u093e\u092f\u0923 \u091f\u094b\u0932", "name:en": "Narayan Tole", "name:ne": "\u0928\u093e\u0930\u093e\u092f\u0923 \u091f\u094b\u0932", "place": "neighbourhood"}}, {"type": "node", "id": 1835392315, "lat": 27.7011705, "lon": 85.3789317, "tags": {"name": "\u092b\u094b\u0930\u094d\u0938 \u092a\u093e\u0930\u094d\u0915", "name:en": "force park", "name:ne": "\u092b\u094b\u0930\u094d\u0938 \u092a\u093e\u0930\u094d\u0915", "place": "locality"}}, {"type": "node", "id": 1835392399, "lat": 27.7049762, "lon": 85.3389833, "tags": {"name": " \u090f\u0915\u0924\u093e \u091a\u094b\u0915", "name:en": "Ekata Chok", "name:ne": " \u090f\u0915\u0924\u093e \u091a\u094b\u0915", "place": "neighbourhood"}}, {"type": "node", "id": 1851053694, "lat": 27.8291945, "lon": 85.2094347, "tags": {"name": "Jurethum", "place": "village"}}, {"type": "node", "id": 1851061582, "lat": 27.8664405, "lon": 85.194453, "tags": {"name": "Dangmai", "place": "village"}}, {"type": "node", "id": 1851062149, "lat": 27.8452758, "lon": 85.1932646, "tags": {"name": "Lauke Barahitan", "place": "hamlet"}}, {"type": "node", "id": 1869598515, "lat": 27.8652027, "lon": 85.1739678, "tags": {"name": "Mandanpur", "place": "village"}}, {"type": "node", "id": 1869598518, "lat": 27.8625873, "lon": 85.180529, "tags": {"name": "Kajindada", "place": "hamlet"}}, {"type": "node", "id": 1875033817, "lat": 27.84917, "lon": 85.191843, "tags": {"name": "Lauke Kotghaderi", "place": "hamlet"}}, {"type": "node", "id": 1875049159, "lat": 27.8419128, "lon": 85.1905153, "tags": {"name": "Lauke", "place": "village"}}, {"type": "node", "id": 1875573901, "lat": 27.8516359, "lon": 85.1783169, "tags": {"name": "Pallo Dangmai", "place": "hamlet"}}, {"type": "node", "id": 1945932982, "lat": 27.7400899, "lon": 85.3371298, "tags": {"name": "\u0928\u093e\u0930\u093e\u092f\u0923 \u0917\u094b\u092a\u093e\u0932 \u091a\u094b\u0915", "name:en": "Narayan Gopal Chowk", "name:ne": "\u0928\u093e\u0930\u093e\u092f\u0923 \u0917\u094b\u092a\u093e\u0932 \u091a\u094b\u0915", "place": "neighbourhood"}}, {"type": "node", "id": 1950463387, "lat": 27.7304156, "lon": 85.3379836, "tags": {"name": "\u0938\u0941\u0919\u094d\u0917\u093e\u0935\u093e \u091a\u094b\u0915", "name:en": "Sungava Chok", "name:ne": "\u0938\u0941\u0919\u094d\u0917\u093e\u0935\u093e \u091a\u094b\u0915", "place": "neighbourhood"}}, {"type": "node", "id": 1955840816, "lat": 27.7205247, "lon": 85.3231405, "tags": {"name": "\u0916\u0930\u0947\u0932 \u091f\u094b\u0932", "name:en": "Kharel Tol", "name:ne": "\u0916\u0930\u0947\u0932 \u091f\u094b\u0932", "place": "neighbourhood"}}, {"type": "node", "id": 1955840817, "lat": 27.7181537, "lon": 85.3237288, "tags": {"name": "\u0916\u094b\u0932\u093e\u0917\u093e\u0932", "name:en": "Kholagaal", "name:ne": "\u0916\u094b\u0932\u093e\u0917\u093e\u0932", "place": "neighbourhood"}}, {"type": "node", "id": 1955852123, "lat": 27.717911, "lon": 85.3290747, "tags": {"name": "\u092d\u0943\u0915\u0941\u091f\u0940 \u091f\u094b\u0932", "name:en": "Bhrikuti Tole", "name:ne": "\u092d\u0943\u0915\u0941\u091f\u0940 \u091f\u094b\u0932", "place": "neighbourhood"}}, {"type": "node", "id": 1955852124, "lat": 27.7200971, "lon": 85.3290866, "tags": {"name": "\u091c\u094b\u0930 \u092a\u093f\u092a\u0932", "name:en": "Jor Pipal", "name:ne": "\u091c\u094b\u0930 \u092a\u093f\u092a\u0932", "place": "neighbourhood"}}, {"type": "node", "id": 1955852125, "lat": 27.7242201, "lon": 85.3262604, "tags": {"name": "\u0916\u0941\u0930\u094d\u0938\u093e\u0928\u093f\u091f\u093e\u0930", "name:en": "Khursanitaar", "name:ne": "\u0916\u0941\u0930\u094d\u0938\u093e\u0928\u093f\u091f\u093e\u0930", "place": "neighbourhood"}}, {"type": "node", "id": 1955852126, "lat": 27.7201235, "lon": 85.3263252, "tags": {"name": "\u0928\u0940\u0932 \u0938\u0930\u0938\u0935\u0924\u0940", "name:en": "Nil Sarsaswati", "name:ne": "\u0928\u0940\u0932 \u0938\u0930\u0938\u0935\u0924\u0940", "place": "neighbourhood"}}, {"type": "node", "id": 1955852127, "lat": 27.7172307, "lon": 85.3304488, "tags": {"name": "\u091f\u0902\u0917\u093e\u0932", "name:en": "Tangal", "name:ne": "\u091f\u0902\u0917\u093e\u0932", "place": "locality"}}, {"type": "node", "id": 1957364330, "lat": 27.7233971, "lon": 85.3434036, "tags": {"name": "\u0906\u0928\u0928\u094d\u0926\u0928\u0917\u0930", "name:en": "Anandanagar", "name:ne": "\u0906\u0928\u0928\u094d\u0926\u0928\u0917\u0930", "place": "neighbourhood"}}, {"type": "node", "id": 1957364340, "lat": 27.7224929, "lon": 85.342662, "tags": {"name": "\u0927\u094b\u092c\u0940 \u0916\u094b\u0932\u093e", "name:en": "Dhobi Khola", "name:ne": "\u0927\u094b\u092c\u0940 \u0916\u094b\u0932\u093e", "place": "neighbourhood"}}, {"type": "node", "id": 1957364341, "lat": 27.7201081, "lon": 85.3433292, "tags": {"name": "\u0917\u0902\u0917\u093e\u0939\u093f\u091f\u0940", "name:en": "Gangahiti", "name:ne": "\u0917\u0902\u0917\u093e\u0939\u093f\u091f\u0940", "place": "neighbourhood"}}, {"type": "node", "id": 2004031729, "lat": 27.7350285, "lon": 85.3145453, "tags": {"name": "\u0917\u094b\u0919\u094d\u0917\u092c\u0941", "name:en": "Gongabu", "name:ne": "\u0917\u094b\u0919\u094d\u0917\u092c\u0941", "place": "suburb", "wikidata": "Q3421574"}}, {"type": "node", "id": 2004031731, "lat": 27.7351676, "lon": 85.3177584, "tags": {"name": "\u0938\u093e\u092e\u093e\u0916\u0941\u0938\u0940", "name:en": "Samakhushi", "name:ne": "\u0938\u093e\u092e\u093e\u0916\u0941\u0938\u0940", "place": "suburb"}}, {"type": "node", "id": 2011801802, "lat": 27.7060131, "lon": 85.3489033}, {"type": "node", "id": 2082985720, "lat": 27.7234822, "lon": 85.3334926, "tags": {"name": "\u0915\u0940\u0930\u094d\u0924\u0928 \u091a\u094b\u0915", "name:en": "Kirtan Chok", "name:ne": "\u0915\u0940\u0930\u094d\u0924\u0928 \u091a\u094b\u0915", "place": "neighbourhood"}}, {"type": "node", "id": 2083084860, "lat": 27.723342, "lon": 85.3379477, "tags": {"name": "\u092a\u091e\u094d\u091a\u0915\u0941\u092e\u093e\u0930\u0940 \u091f\u094b\u0932", "name:en": "Panchakumari Tol", "name:ne": "\u092a\u091e\u094d\u091a\u0915\u0941\u092e\u093e\u0930\u0940 \u091f\u094b\u0932", "place": "locality"}}, {"type": "node", "id": 2115211532, "lat": 27.7114137, "lon": 85.3483921}, {"type": "node", "id": 2120583599, "lat": 27.7352873, "lon": 85.3058242, "tags": {"name": "\u092e\u093e\u091b\u093e\u092a\u094b\u0916\u0930\u0940", "name:en": "Machhapokhari", "name:ne": "\u092e\u093e\u091b\u093e\u092a\u094b\u0916\u0930\u0940", "place": "suburb"}}, {"type": "node", "id": 2120583600, "lat": 27.7270105, "lon": 85.3045555, "tags": {"alt_name": "B\u0101l\u0101ju", "name": "\u092c\u093e\u0932\u093e\u091c\u0941", "name:en": "Balaju", "name:ne": "\u092c\u093e\u0932\u093e\u091c\u0941", "place": "suburb", "source:alt_name": "GNS"}}, {"type": "node", "id": 2120583601, "lat": 27.7422381, "lon": 85.3326175, "tags": {"name": "\u092c\u0938\u0941\u0928\u094d\u0927\u0930\u093e", "name:bn": "\u09ac\u09b8\u09c1\u09a8\u09cd\u09a7\u09b0\u09be", "name:en": "Basundhara", "name:ne": "\u092c\u0938\u0941\u0928\u094d\u0927\u0930\u093e", "place": "suburb"}}, {"type": "node", "id": 2120583602, "lat": 27.7349193, "lon": 85.3424002, "tags": {"name": "\u091a\u092a\u094d\u092a\u0932 \u0915\u093e\u0930\u0916\u093e\u0928\u093e", "name:en": "Chappal Karkhana", "name:ne": "\u091a\u092a\u094d\u092a\u0932 \u0915\u093e\u0930\u0916\u093e\u0928\u093e", "place": "suburb"}}, {"type": "node", "id": 2120583603, "lat": 27.7317853, "lon": 85.3444755, "tags": {"name": "\u0927\u0941\u092e\u094d\u092c\u093e\u0930\u093e\u0939\u0940", "name:en": "Dhumbarahi", "name:ne": "\u0927\u0941\u092e\u094d\u092c\u093e\u0930\u093e\u0939\u0940", "place": "suburb"}}, {"type": "node", "id": 2120584130, "lat": 27.7278747, "lon": 85.3457431, "tags": {"name": "Sukedhara Chowk", "place": "locality"}}, {"type": "node", "id": 2122216844, "lat": 27.7330791, "lon": 85.3288072, "tags": {"name": "\u092e\u0939\u093e\u0930\u093e\u091c\u0917\u0902\u091c", "name:en": "Maharajganj", "name:ne": "\u092e\u0939\u093e\u0930\u093e\u091c\u0917\u0902\u091c", "place": "suburb"}}, {"type": "node", "id": 2122304889, "lat": 27.7192364, "lon": 85.3311727, "tags": {"name": "\u092d\u093e\u091f-\u092d\u091f\u0947\u0928\u0940", "name:en": "Bhatbhateni", "name:ne": "\u092d\u093e\u091f-\u092d\u091f\u0947\u0928\u0940", "place": "suburb"}}, {"type": "node", "id": 2122304890, "lat": 27.7217784, "lon": 85.335557, "tags": {"name": "\u092c\u093f\u0936\u093e\u0932\u0928\u0917\u0930", "name:en": "Bishalnagar", "name:ne": "\u092c\u093f\u0936\u093e\u0932\u0928\u0917\u0930", "place": "suburb"}}, {"type": "node", "id": 2122304891, "lat": 27.7177295, "lon": 85.3278347, "tags": {"name": "\u0917\u0948\u0930\u0940\u0927\u093e\u0930\u093e", "name:en": "Gairidhara", "name:ne": "\u0917\u0948\u0930\u0940\u0927\u093e\u0930\u093e", "place": "locality", "wikidata": "Q48728394", "wikipedia": "en:Gairidhara"}}, {"type": "node", "id": 2122304892, "lat": 27.7178631, "lon": 85.3362474, "tags": {"name": "\u0939\u093e\u0921\u0940\u0917\u093e\u0909\u0901", "name:en": "Hadigaun", "name:ne": "\u0939\u093e\u0921\u0940\u0917\u093e\u0909\u0901", "place": "locality"}}, {"type": "node", "id": 2122304893, "lat": 27.716998, "lon": 85.3159824, "tags": {"name": "\u0932\u0948\u0928\u091a\u094c\u0930 \u091a\u094c\u0915", "name:en": "Lainchaur Chowk", "name:ne": "\u0932\u0948\u0928\u091a\u094c\u0930 \u091a\u094c\u0915", "place": "locality"}}, {"type": "node", "id": 2122304896, "lat": 27.7206627, "lon": 85.3066352, "tags": {"alt_name": "B\u0101l\u0101ju", "name": "\u0928\u092f\u093e\u0901 \u092c\u091c\u093e\u0930", "name:en": "Nayabazar", "name:ne": "\u0928\u092f\u093e\u0901 \u092c\u091c\u093e\u0930", "place": "suburb", "source:alt_name": "GNS"}}, {"type": "node", "id": 2122304897, "lat": 27.71819, "lon": 85.3096666, "tags": {"name": "\u0938\u094b\u0930\u0916\u0941\u091f\u094d\u091f\u0947", "name:bn": "\u09a5\u09be\u09ae\u09c7\u09b2", "name:en": "Sorakhutte", "name:ne": "\u0938\u094b\u0930\u0916\u0941\u091f\u094d\u091f\u0947", "name:zh": "\u6cf0\u7c73\u5c14\u533a", "place": "suburb"}}, {"type": "node", "id": 2163524790, "lat": 27.746998, "lon": 85.3363626, "tags": {"name": "\u0938\u0943\u091c\u0928\u0936\u0940\u0932 \u091f\u094b\u0932", "name:en": "Shrijanshil Tol", "name:ne": "\u0938\u0943\u091c\u0928\u0936\u0940\u0932 \u091f\u094b\u0932", "place": "neighbourhood"}}, {"type": "node", "id": 2169300532, "lat": 27.7291869, "lon": 85.3535417, "tags": {"name": "Pancha Kumari", "place": "neighbourhood"}}, {"type": "node", "id": 2175266676, "lat": 27.7331864, "lon": 85.284037, "tags": {"name": "\u092c\u0941\u0926\u094d\u0927 \u091a\u094b\u0915", "name:en": "Buddha Chowk", "name:ne": "\u092c\u0941\u0926\u094d\u0927 \u091a\u094b\u0915", "place": "neighbourhood"}}, {"type": "node", "id": 2190750377, "lat": 27.7361203, "lon": 85.3473916, "tags": {"name": "\u092e\u0928\u094d\u0921\u0940\u0915\u093e\u091f\u093e\u0930", "name:en": "Mandikhatar", "name:ne": "\u092e\u0928\u094d\u0921\u0940\u0915\u093e\u091f\u093e\u0930", "place": "suburb"}}, {"type": "node", "id": 2192585842, "lat": 27.8490148, "lon": 85.0273018, "tags": {"name": "Taruka Ghat", "place": "hamlet"}}, {"type": "node", "id": 2206264553, "lat": 27.76704, "lon": 85.300621, "tags": {"name": "\u0927\u0930\u094d\u092e\u0938\u094d\u0925\u0932\u0940", "name:bn": "\u09a4\u09be\u09b0\u0995\u09c7\u09b6\u09cd\u09ac\u09b0", "name:en": "Dharmasthali", "name:ne": "\u0927\u0930\u094d\u092e\u0938\u094d\u0925\u0932\u0940", "place": "village", "wikidata": "Q3411948", "wikipedia": "en:Dharmasthali"}}, {"type": "node", "id": 2207719951, "lat": 27.7249402, "lon": 85.2977635, "tags": {"name": "\u092c\u0928\u0938\u094d\u0925\u0932\u0940", "name:en": "Banasthali", "name:ne": "\u092c\u0928\u0938\u094d\u0925\u0932\u0940", "place": "suburb"}}, {"type": "node", "id": 2207719954, "lat": 27.7209172, "lon": 85.2892154, "tags": {"name": "\u0938\u093e\u0928\u094b \u092d\u0930\u094d\u092f\u093e\u0902\u0919", "name:en": "Sano Bharyang", "name:ne": "\u0938\u093e\u0928\u094b \u092d\u0930\u094d\u092f\u093e\u0902\u0919", "place": "suburb"}}, {"type": "node", "id": 2230587293, "lat": 27.7060365, "lon": 85.3498112, "tags": {"name": "\u0924\u093f\u0932\u0917\u0902\u0917\u093e", "name:en": "Tilganga", "name:ne": "\u0924\u093f\u0932\u0917\u0902\u0917\u093e", "place": "suburb"}}, {"type": "node", "id": 2251951447, "lat": 27.694467, "lon": 85.383571, "tags": {"name": "\u092c\u094b\u0921\u0947\u0917\u093e\u0909", "name:en": "Bodegau", "name:ne": "\u092c\u094b\u0921\u0947\u0917\u093e\u0909", "place": "locality"}}, {"type": "node", "id": 2261069216, "lat": 27.7428022, "lon": 85.3446829, "tags": {"name": "\u092a\u093f\u092a\u0932 \u092c\u094b\u091f", "name:en": "Pipal Bot", "name:ne": "\u092a\u093f\u092a\u0932 \u092c\u094b\u091f", "place": "locality"}}, {"type": "node", "id": 2280849625, "lat": 27.7483836, "lon": 85.3184514, "tags": {"name": "\u092c\u093e\u0928\u093f\u092f\u093e\u0901\u091f\u093e\u0930", "name:bn": "\u09a4\u09be\u09b0\u0995\u09c7\u09b6\u09cd\u09ac\u09b0", "name:en": "Baniyatar", "name:ne": "\u092c\u093e\u0928\u093f\u092f\u093e\u0901\u091f\u093e\u0930", "place": "neighbourhood"}}, {"type": "node", "id": 2280849633, "lat": 27.747585, "lon": 85.3175708, "tags": {"name": "\u091c\u093e\u0932\u094d\u092a\u093e \u091a\u094b\u0915", "name:en": "Jalpa Chowk", "name:ne": "\u091c\u093e\u0932\u094d\u092a\u093e \u091a\u094b\u0915", "place": "suburb"}}, {"type": "node", "id": 2302082269, "lat": 27.7687147, "lon": 85.3301343, "tags": {"name": "\u091f\u094b\u0916\u093e \u091a\u0923\u094d\u0921\u0947\u0936\u094d\u0935\u0930\u093f", "name:en": "Tokha Chandeshwari", "name:ne": "\u091f\u094b\u0916\u093e \u091a\u0923\u094d\u0921\u0947\u0936\u094d\u0935\u0930\u093f", "place": "suburb", "wikidata": "Q3426518"}}, {"type": "node", "id": 2302082270, "lat": 27.7626639, "lon": 85.3302792, "tags": {"name": "\u091f\u094b\u0916\u093e \u0938\u0930\u0938\u094d\u0935\u0924\u0940", "name:en": "Tokha Saraswati", "name:ne": "\u091f\u094b\u0916\u093e \u0938\u0930\u0938\u094d\u0935\u0924\u0940", "place": "village", "wikidata": "Q3427672", "wikipedia": "en:Tokha Saraswati"}}, {"type": "node", "id": 2374676929, "lat": 27.7240028, "lon": 85.2841596, "tags": {"name": "\u0938\u093e\u0928\u094d\u0924\u093f\u0928\u0917\u0930", "name:en": "Santinagar", "name:ne": "\u0938\u093e\u0928\u094d\u0924\u093f\u0928\u0917\u0930", "place": "suburb"}}, {"type": "node", "id": 2374689270, "lat": 27.7281235, "lon": 85.2895044, "tags": {"name": "\u090f\u0930\u093e\u0939\u093f\u091f\u0940", "name:en": "Aerahiti", "name:ne": "\u090f\u0930\u093e\u0939\u093f\u091f\u0940", "place": "suburb"}}, {"type": "node", "id": 2807905852, "lat": 27.719913, "lon": 85.3126409, "tags": {"name": "\u0917\u0932\u094d\u0915\u094b\u092a\u093e\u0916\u093e", "name:en": "Galkopakha", "name:ne": "\u0917\u0932\u094d\u0915\u094b\u092a\u093e\u0916\u093e", "place": "suburb"}}, {"type": "node", "id": 2857852085, "lat": 27.9603671, "lon": 85.1703311, "tags": {"name": "Bhainse", "place": "village"}}, {"type": "node", "id": 2910276766, "lat": 27.71336, "lon": 85.3450409, "tags": {"name": "\u092e\u093f\u0924\u094d\u0930\u093e\u092a\u093e\u0930\u094d\u0915", "name:en": "Mitrapark", "name:ne": "\u092e\u093f\u0924\u094d\u0930\u092a\u093e\u0930\u094d\u0915", "place": "locality"}}, {"type": "node", "id": 3069793322, "lat": 27.8056195, "lon": 85.0033449}, {"type": "node", "id": 3069794040, "lat": 27.8051335, "lon": 85.0025151}, {"type": "node", "id": 3069794042, "lat": 27.8045328, "lon": 85.0028835}, {"type": "node", "id": 3069794101, "lat": 27.8062223, "lon": 85.0039959}, {"type": "node", "id": 3069794114, "lat": 27.806488, "lon": 85.0038725}, {"type": "node", "id": 3069794267, "lat": 27.8045945, "lon": 85.0026582}, {"type": "node", "id": 3069794286, "lat": 27.806279, "lon": 85.0037921}, {"type": "node", "id": 3069794288, "lat": 27.80533, "lon": 85.0032537}, {"type": "node", "id": 3078005827, "lat": 27.8060512, "lon": 84.9922623}, {"type": "node", "id": 3094285263, "lat": 27.7148138, "lon": 85.3121895, "tags": {"alt_name": "B\u0101l\u0101ju", "name": "\u0932\u0941\u091f \u091a\u094b\u0915", "name:en": "Lut Chok", "name:ne": "\u0932\u0941\u091f \u091a\u094b\u0915", "place": "neighbourhood", "source:alt_name": "GNS"}}, {"type": "node", "id": 3103221658, "lat": 27.7285804, "lon": 85.3590302, "tags": {"name": "\u0924\u0947\u0928\u094d\u091c\u093f\u0919 \u091a\u094b\u0915", "name:en": "Tenzing Chok", "name:ne": "\u0924\u0947\u0928\u094d\u091c\u093f\u0919 \u091a\u094b\u0915", "place": "neighbourhood"}}, {"type": "node", "id": 3164346752, "lat": 27.7198238, "lon": 85.2972023, "tags": {"loc_name": "\u091a\u092e\u0924\u093f", "name": "\u091a\u092e\u0924\u0940", "name:en": "Chamati", "name:ne": "\u091a\u092e\u0924\u0940", "place": "suburb"}}, {"type": "node", "id": 3198204652, "lat": 27.9229272, "lon": 85.308285, "tags": {"name": "Kharanitar VDC", "place": "hamlet", "wikidata": "Q3417388", "wikipedia": "en:Kharanitar"}}, {"type": "node", "id": 3198263833, "lat": 27.9251624, "lon": 85.3096911, "tags": {"name": "\u092e\u093e\u0925\u093f\u0932\u094d\u0932\u094b \u091a\u094c\u0930", "place": "hamlet"}}, {"type": "node", "id": 3232885374, "lat": 27.7149104, "lon": 85.341099, "tags": {"name": "\u0915\u0941\u091f\u0941 \u092c\u093e\u0939\u0932", "name:en": "Kutu Bahal", "name:ne": "\u0915\u0941\u091f\u0941 \u092c\u093e\u0939\u0932", "place": "neighbourhood"}}, {"type": "node", "id": 3232885375, "lat": 27.7091262, "lon": 85.3393597, "tags": {"name": "\u092a\u0928\u0947\u0915\u0941 \u091f\u094b\u0932", "name:en": "Paneku Tol", "name:ne": "\u092a\u0928\u0947\u0915\u0941 \u091f\u094b\u0932", "place": "neighbourhood"}}, {"type": "node", "id": 3232885376, "lat": 27.7137465, "lon": 85.3401373, "tags": {"name": "\u092a\u0928\u094d\u0928\u093e \u0939\u093f\u091f\u0940", "name:en": "Panna Hiti", "name:ne": "\u092a\u0928\u094d\u0928\u093e \u0939\u093f\u091f\u0940", "place": "neighbourhood"}}, {"type": "node", "id": 3232887689, "lat": 27.7164842, "lon": 85.3432821, "tags": {"name": "Bulbulley", "place": "neighbourhood"}}, {"type": "node", "id": 3232887690, "lat": 27.7175579, "lon": 85.3427565, "tags": {"name": "\u092c\u093f\u0928\u093e\u092f\u0915 \u091f\u094b\u0932", "name:en": "Binayak Tol", "name:ne": "\u092c\u093f\u0928\u093e\u092f\u0915 \u091f\u094b\u0932", "place": "neighbourhood"}}, {"type": "node", "id": 3232897799, "lat": 27.7224144, "lon": 85.3470429, "tags": {"name": "\u0917\u094b\u092a\u0940 \u0915\u0943\u0937\u094d\u0923 \u0928\u0917\u0930", "name:en": "Gopi Krishna Nagar", "name:ne": "\u0917\u094b\u092a\u0940 \u0915\u0943\u0937\u094d\u0923 \u0928\u0917\u0930", "place": "neighbourhood", "source": "KMC ward profile"}}, {"type": "node", "id": 3232897800, "lat": 27.715312, "lon": 85.3521565, "tags": {"name": "\u0915\u0941\u092e\u093e\u0930\u093f\u0917\u0932", "name:en": "Kumarigal", "name:ne": "\u0915\u0941\u092e\u093e\u0930\u093f\u0917\u0932", "place": "neighbourhood", "source": "KMC ward profile"}}, {"type": "node", "id": 3232897801, "lat": 27.7166028, "lon": 85.3492626, "tags": {"name": "\u092e\u093e\u0907\u091c\u0941 \u092c\u0939\u0932", "name:en": "Maiju Bahal", "name:ne": "\u092e\u093e\u0907\u091c\u0941 \u092c\u0939\u0932", "place": "neighbourhood", "source": "KMC ward profile"}}, {"type": "node", "id": 3232897802, "lat": 27.7182614, "lon": 85.3555357, "tags": {"name": "\u092e\u093e\u0907\u091c\u0941 \u092c\u0939\u0932", "name:en": "Maiju Bahal", "name:ne": "\u092e\u093e\u0907\u091c\u0941 \u092c\u0939\u0932", "place": "neighbourhood", "source": "KMC ward profile"}}, {"type": "node", "id": 3232897803, "lat": 27.7219976, "lon": 85.3496607, "tags": {"name": "\u0938\u0930\u0938\u094d\u0935\u0924\u0940 \u0928\u0917\u0930", "name:en": "Saraswati Nagar", "name:ne": "\u0938\u0930\u0938\u094d\u0935\u0924\u0940 \u0928\u0917\u0930", "place": "neighbourhood"}}, {"type": "node", "id": 3315904180, "lat": 27.712092, "lon": 85.3221418, "tags": {"name": "\u0939\u093e\u0924\u094d\u0924\u093f\u0938\u093e\u0930", "name:en": "Hattisar", "name:ne": "\u0939\u093e\u0924\u094d\u0924\u093f\u0938\u093e\u0930", "place": "locality"}}, {"type": "node", "id": 3315904182, "lat": 27.7126782, "lon": 85.3287033, "tags": {"name": "\u0928\u0915\u094d\u0938\u093e\u0932", "name:en": "Naxal", "name:ne": "\u0928\u0915\u094d\u0938\u093e\u0932", "place": "locality"}}, {"type": "node", "id": 3316605932, "lat": 27.7190608, "lon": 85.3223757, "tags": {"name": "\u0927\u094b\u092c\u0940 \u091a\u094c\u0930", "name:en": "Dhobi chaur", "name:ne": "\u0927\u094b\u092c\u0940 \u091a\u094c\u0930", "place": "neighbourhood"}}, {"type": "node", "id": 3316605933, "lat": 27.7185834, "lon": 85.3210988, "tags": {"name": "\u0915\u0948\u0932\u093e\u0936 \u091a\u094b\u0915", "name:en": "Kailash Chok", "name:ne": "\u0915\u0948\u0932\u093e\u0936 \u091a\u094b\u0915", "place": "neighbourhood"}}, {"type": "node", "id": 3316605934, "lat": 27.7391564, "lon": 85.3418997, "tags": {"name": "\u092e\u093f\u0932\u093f\u091c\u0941\u0932\u0940 \u091f\u094b\u0932", "name:en": "Milijuli Tol", "name:ne": "\u092e\u093f\u0932\u093f\u091c\u0941\u0932\u0940 \u091f\u094b\u0932", "place": "neighbourhood"}}, {"type": "node", "id": 3318008704, "lat": 27.7353035, "lon": 85.3377673, "tags": {"name": "\u091a\u0941\u0928\u0926\u0947\u0935\u0940", "name:en": "Chundevi", "name:ne": "\u091a\u0941\u0928\u0926\u0947\u0935\u0940", "place": "neighbourhood", "source": "KMC ward profile"}}, {"type": "node", "id": 3318008705, "lat": 27.7381263, "lon": 85.3382525, "tags": {"name": "\u0917\u0923\u0947\u0936 \u092c\u0938\u094d\u0924\u0940", "name:en": "Ganesh Basti", "name:ne": "\u0917\u0923\u0947\u0936 \u092c\u0938\u094d\u0924\u0940", "place": "neighbourhood"}}, {"type": "node", "id": 3318008706, "lat": 27.7322259, "lon": 85.3362591, "tags": {"name": "\u092a\u0928\u094d\u091a\u0915\u0928\u094d\u092f\u093e", "name:en": "Panchakanya", "name:ne": "\u092a\u0928\u094d\u091a\u0915\u0928\u094d\u092f\u093e", "place": "neighbourhood", "source": "KMC ward profile"}}, {"type": "node", "id": 3318008707, "lat": 27.7342336, "lon": 85.3345657, "tags": {"name": "\u091f\u0941\u0938\u093e\u0932", "name:en": "Tusal", "name:ne": "\u091f\u0941\u0938\u093e\u0932", "place": "neighbourhood", "source": "KMC ward profile"}}, {"type": "node", "id": 3318030100, "lat": 27.7273613, "lon": 85.3475653, "tags": {"name": "\u0906\u0928\u0928\u094d\u0926 \u0928\u0917\u0930", "name:en": "Ananda Nagar", "name:ne": "\u0906\u0928\u0928\u094d\u0926 \u0928\u0917\u0930", "place": "neighbourhood", "source": "KMC ward profile"}}, {"type": "node", "id": 3318030101, "lat": 27.7166327, "lon": 85.3362104, "tags": {"name": "\u0926\u0925\u0941 \u091f\u094b\u0932", "name:en": "Dathu Tol", "name:ne": "\u0926\u0925\u0941 \u091f\u094b\u0932", "place": "neighbourhood", "source": "KMC ward profile"}}, {"type": "node", "id": 3318030102, "lat": 27.7147067, "lon": 85.3349889, "tags": {"name": "\u0915\u093f\u0938\u093e\u0928 \u091f\u094b\u0932", "name:en": "Kisan Tol", "name:ne": "\u0915\u093f\u0938\u093e\u0928 \u091f\u094b\u0932", "place": "neighbourhood", "source": "KMC ward profile"}}, {"type": "node", "id": 3318030103, "lat": 27.7161157, "lon": 85.3350856, "tags": {"name": "\u0915\u094b\u091f\u0932 \u091f\u094b\u0932", "name:en": "Kotal Tol ", "name:ne": "\u0915\u094b\u091f\u0932 \u091f\u094b\u0932", "place": "neighbourhood", "source": "KMC ward profile"}}, {"type": "node", "id": 3318030104, "lat": 27.7151292, "lon": 85.3348347, "tags": {"name": "\u092e\u093e\u0932\u0940 \u0917\u093e\u0909\u0901", "name:en": "Mali Gaun", "name:ne": "\u092e\u093e\u0932\u0940 \u0917\u093e\u0909\u0901", "place": "neighbourhood"}}, {"type": "node", "id": 3318180152, "lat": 27.7117341, "lon": 85.3335747, "tags": {"name": "\u0938\u093e\u0928\u094b \u0917\u094c\u091a\u0930\u0923", "name:en": "Sano Gaucharan", "name:ne": "\u0938\u093e\u0928\u094b \u0917\u094c\u091a\u0930\u0923", "place": "neighbourhood", "source": "KMC ward profile"}}, {"type": "node", "id": 3318253390, "lat": 27.7205626, "lon": 85.3617188, "tags": {"name": "\u092c\u094c\u0926\u094d\u0927", "name:en": "Baudha", "name:ne": "\u092c\u094c\u0926\u094d\u0927", "place": "suburb", "source": "KMC ward profile"}}, {"type": "node", "id": 3318253391, "lat": 27.7274538, "lon": 85.3710948, "tags": {"name": "\u092d\u0941\u0905\u0932 \u0921\u093e\u0921\u093e", "name:en": "Bhual Dhanda", "name:ne": "\u092d\u0941\u0905\u0932 \u0921\u093e\u0921\u093e", "place": "neighbourhood", "source": "KMC ward profile"}}, {"type": "node", "id": 3318253392, "lat": 27.7195468, "lon": 85.3509806, "tags": {"name": "\u091a\u0941\u091a\u0947\u092a\u093e\u091f\u0940", "name:en": "Chuchepati", "name:ne": "\u091a\u0941\u091a\u0947\u092a\u093e\u091f\u0940", "place": "neighbourhood", "source": "KMC ward profile"}}, {"type": "node", "id": 3318253393, "lat": 27.7220002, "lon": 85.3598994, "tags": {"name": "\u0927\u093e\u0930\u093e \u091f\u094b\u0932", "name:en": "Dhara Tole", "name:ne": "\u0927\u093e\u0930\u093e \u091f\u094b\u0932", "place": "neighbourhood"}}, {"type": "node", "id": 3318253394, "lat": 27.7225087, "lon": 85.3547899, "tags": {"name": "Pani Tanki", "place": "neighbourhood", "source": "KMC ward profile"}}, {"type": "node", "id": 3318253395, "lat": 27.7186666, "lon": 85.3621556, "tags": {"name": "\u092a\u093e\u091f\u0940 \u091f\u093e\u0930", "name:en": "Pati Tar", "name:ne": "\u092a\u093e\u091f\u0940 \u091f\u093e\u0930", "place": "neighbourhood"}}, {"type": "node", "id": 3318253396, "lat": 27.7273432, "lon": 85.3564312, "tags": {"name": "\u0936\u093e\u0928\u094d\u0924\u093f \u0928\u0917\u0930", "name:en": "Shanti Nagar", "name:ne": "\u0936\u093e\u0928\u094d\u0924\u093f \u0928\u0917\u0930", "place": "neighbourhood", "source": "KMC ward profile"}}, {"type": "node", "id": 3318253397, "lat": 27.722256, "lon": 85.3676951, "tags": {"name": "\u0938\u0941\u0928\u094d\u0926\u0930 \u091f\u094b\u0932", "name:en": "Sundar Tole", "name:ne": "\u0938\u0941\u0928\u094d\u0926\u0930 \u091f\u094b\u0932", "place": "neighbourhood"}}, {"type": "node", "id": 3318253399, "lat": 27.7191976, "lon": 85.3591684, "tags": {"name": "\u091f\u0941\u0938\u093e\u0932", "name:en": "Tusal", "name:ne": "\u091f\u0941\u0938\u093e\u0932", "place": "neighbourhood", "source": "KMC ward profile"}}, {"type": "node", "id": 3415524998, "lat": 28.0170397, "lon": 85.1765028, "tags": {"name": "Archale", "place": "village"}}, {"type": "node", "id": 3415524999, "lat": 28.0172009, "lon": 85.1814642, "tags": {"name": "Shanti Bazar", "place": "village"}}, {"type": "node", "id": 3415525225, "lat": 28.0292002, "lon": 85.1911972, "tags": {"name": "Simle", "place": "village"}}, {"type": "node", "id": 3415530606, "lat": 28.1164817, "lon": 85.2790735, "tags": {"name": "Haku Besi", "place": "village"}}, {"type": "node", "id": 3415532806, "lat": 28.0621061, "lon": 85.1995473, "tags": {"name": "Chipleti", "place": "village"}}, {"type": "node", "id": 3415532807, "lat": 28.0559857, "lon": 85.2075964, "tags": {"alt_name": "Dandagaun", "name": "Saletta", "place": "village", "source:alt_name": "2015-05-04 reco mission report", "wikidata": "Q5215650"}}, {"type": "node", "id": 3415533959, "lat": 28.0717737, "lon": 85.2070031, "tags": {"name": "Mailung", "name:en": "Takeoff yard", "place": "village"}}, {"type": "node", "id": 3415536482, "lat": 28.1241718, "lon": 85.2701521, "tags": {"name": "Sano Haku", "place": "village"}}, {"type": "node", "id": 3415550685, "lat": 28.0573468, "lon": 85.2260042, "tags": {"name": "Grang", "place": "village"}}, {"type": "node", "id": 3415550686, "lat": 28.0325574, "lon": 85.2192256, "tags": {"name": "Ramche", "place": "village"}}, {"type": "node", "id": 3415553188, "lat": 28.077556, "lon": 85.2440931, "tags": {"name": "Thade", "place": "village"}}, {"type": "node", "id": 3476388711, "lat": 27.8506951, "lon": 85.038505, "tags": {"place": "village"}}, {"type": "node", "id": 3476388742, "lat": 27.8568506, "lon": 85.046155}, {"type": "node", "id": 3476388743, "lat": 27.857257, "lon": 85.0473878}, {"type": "node", "id": 3476388744, "lat": 27.856908, "lon": 85.046796}, {"type": "node", "id": 3476388745, "lat": 27.8574842, "lon": 85.0479344}, {"type": "node", "id": 3476388746, "lat": 27.8577795, "lon": 85.0459306}, {"type": "node", "id": 3476388747, "lat": 27.8580793, "lon": 85.0482912}, {"type": "node", "id": 3476388748, "lat": 27.858235, "lon": 85.0480356}, {"type": "node", "id": 3476388749, "lat": 27.858164, "lon": 85.0521588}, {"type": "node", "id": 3476388750, "lat": 27.8587879, "lon": 85.0516811}, {"type": "node", "id": 3476388751, "lat": 27.8587942, "lon": 85.0532552}, {"type": "node", "id": 3476388752, "lat": 27.8591909, "lon": 85.0522524}, {"type": "node", "id": 3476388753, "lat": 27.8595058, "lon": 85.0514461}, {"type": "node", "id": 3476388754, "lat": 27.8599907, "lon": 85.0534262}, {"type": "node", "id": 3476388755, "lat": 27.8601229, "lon": 85.052778}, {"type": "node", "id": 3476388756, "lat": 27.8601418, "lon": 85.0560687}, {"type": "node", "id": 3476388757, "lat": 27.8605133, "lon": 85.0531413}, {"type": "node", "id": 3476388758, "lat": 27.8605637, "lon": 85.0546513}, {"type": "node", "id": 3476388759, "lat": 27.8606456, "lon": 85.056261}, {"type": "node", "id": 3476388760, "lat": 27.8607589, "lon": 85.0542097}, {"type": "node", "id": 3476508983, "lat": 28.0029872, "lon": 85.2844728, "tags": {"place": "isolated_dwelling"}}, {"type": "node", "id": 3476508984, "lat": 28.0049343, "lon": 85.300912, "tags": {"name": "Yubra", "place": "village"}}, {"type": "node", "id": 3476508985, "lat": 28.0054005, "lon": 85.2844653, "tags": {"place": "isolated_dwelling"}}, {"type": "node", "id": 3476508986, "lat": 28.0057242, "lon": 85.2960446, "tags": {"place": "isolated_dwelling"}}, {"type": "node", "id": 3476508988, "lat": 28.0141703, "lon": 85.3046017, "tags": {"place": "isolated_dwelling"}}, {"type": "node", "id": 3476508989, "lat": 28.0179632, "lon": 85.3064179, "tags": {"place": "hamlet"}}, {"type": "node", "id": 3477194430, "lat": 28.0263775, "lon": 85.2774098, "tags": {"place": "hamlet"}}, {"type": "node", "id": 3477235202, "lat": 27.8177421, "lon": 84.9646446}, {"type": "node", "id": 3477235203, "lat": 27.8177992, "lon": 84.9644607}, {"type": "node", "id": 3477235204, "lat": 27.8178321, "lon": 84.9648461}, {"type": "node", "id": 3477235205, "lat": 27.8178442, "lon": 84.9647268}, {"type": "node", "id": 3477235207, "lat": 27.8179117, "lon": 84.9651455}, {"type": "node", "id": 3477235208, "lat": 27.8179204, "lon": 84.9645077}, {"type": "node", "id": 3477235209, "lat": 27.8179567, "lon": 84.9649302}, {"type": "node", "id": 3477235210, "lat": 27.817974, "lon": 84.9646446}, {"type": "node", "id": 3477235213, "lat": 27.8180744, "lon": 84.9652589}, {"type": "node", "id": 3477235216, "lat": 27.8181332, "lon": 84.964539}, {"type": "node", "id": 3477235218, "lat": 27.8181574, "lon": 84.9650183}, {"type": "node", "id": 3477235221, "lat": 27.8182128, "lon": 84.964985}, {"type": "node", "id": 3477235222, "lat": 27.8182162, "lon": 84.9645996}, {"type": "node", "id": 3477235224, "lat": 27.8183235, "lon": 84.964717}, {"type": "node", "id": 3477235226, "lat": 27.8183927, "lon": 84.9651063}, {"type": "node", "id": 3477235228, "lat": 27.8184585, "lon": 84.9649224}, {"type": "node", "id": 3477788830, "lat": 27.8179295, "lon": 84.9647471}, {"type": "node", "id": 3477788840, "lat": 27.8179652, "lon": 84.9647743}, {"type": "node", "id": 3477788841, "lat": 27.8179683, "lon": 84.9646822}, {"type": "node", "id": 3477788848, "lat": 27.8180039, "lon": 84.9647094}, {"type": "node", "id": 3478001840, "lat": 27.7660775, "lon": 85.1402383}, {"type": "node", "id": 3478046385, "lat": 28.1152615, "lon": 85.2638022, "tags": {"place": "village"}}, {"type": "node", "id": 3478161243, "lat": 27.8790733, "lon": 85.0655772, "tags": {"place": "hamlet"}}, {"type": "node", "id": 3478161244, "lat": 27.8800654, "lon": 85.0738771, "tags": {"place": "hamlet"}}, {"type": "node", "id": 3478161245, "lat": 27.8824223, "lon": 85.0488554, "tags": {"place": "hamlet"}}, {"type": "node", "id": 3478161246, "lat": 27.8852325, "lon": 85.075742, "tags": {"place": "hamlet"}}, {"type": "node", "id": 3478161247, "lat": 27.8909959, "lon": 85.0602277, "tags": {"name": "Bhanjyangthok", "place": "hamlet"}}, {"type": "node", "id": 3478161248, "lat": 27.8919588, "lon": 85.0704697, "tags": {"place": "hamlet"}}, {"type": "node", "id": 3478161249, "lat": 27.8938671, "lon": 85.0486434, "tags": {"place": "hamlet"}}, {"type": "node", "id": 3478161250, "lat": 27.8942265, "lon": 85.0616983, "tags": {"place": "hamlet"}}, {"type": "node", "id": 3478161251, "lat": 27.8945574, "lon": 85.0429456, "tags": {"place": "hamlet"}}, {"type": "node", "id": 3478161252, "lat": 27.8955048, "lon": 85.0653839, "tags": {"place": "hamlet"}}, {"type": "node", "id": 3478161253, "lat": 27.8964814, "lon": 85.0401372, "tags": {"place": "hamlet"}}, {"type": "node", "id": 3478161254, "lat": 27.8982585, "lon": 85.0383092, "tags": {"place": "hamlet"}}, {"type": "node", "id": 3478161255, "lat": 27.8982735, "lon": 85.0559346, "tags": {"place": "hamlet"}}, {"type": "node", "id": 3478161256, "lat": 27.8983246, "lon": 85.0619127, "tags": {"place": "hamlet"}}, {"type": "node", "id": 3478161258, "lat": 27.9008506, "lon": 85.0655936, "tags": {"place": "hamlet"}}, {"type": "node", "id": 3478161259, "lat": 27.901394, "lon": 85.0381264, "tags": {"place": "hamlet"}}, {"type": "node", "id": 3478161260, "lat": 27.9027745, "lon": 85.0434358, "tags": {"place": "hamlet"}}, {"type": "node", "id": 3478161264, "lat": 27.9109542, "lon": 85.039906, "tags": {"place": "hamlet"}}, {"type": "node", "id": 3478242461, "lat": 27.9051748, "lon": 85.0757011, "tags": {"place": "hamlet"}}, {"type": "node", "id": 3478243596, "lat": 27.908983, "lon": 85.0752352, "tags": {"place": "hamlet"}}, {"type": "node", "id": 3478243857, "lat": 27.9153251, "lon": 85.0688956, "tags": {"place": "hamlet"}}, {"type": "node", "id": 3478243897, "lat": 27.9165908, "lon": 85.0749806, "tags": {"place": "hamlet"}}, {"type": "node", "id": 3478249110, "lat": 27.91093, "lon": 85.0361715, "tags": {"place": "hamlet"}}, {"type": "node", "id": 3478285246, "lat": 27.8899787, "lon": 85.1078951, "tags": {"place": "hamlet"}}, {"type": "node", "id": 3478285249, "lat": 27.8911218, "lon": 85.1033111, "tags": {"place": "hamlet"}}, {"type": "node", "id": 3478285260, "lat": 27.8966788, "lon": 85.112241, "tags": {"place": "hamlet"}}, {"type": "node", "id": 3478460439, "lat": 27.8701354, "lon": 85.0594493, "tags": {"place": "hamlet"}}, {"type": "node", "id": 3478470822, "lat": 27.8601051, "lon": 85.0775152, "tags": {"place": "hamlet"}}, {"type": "node", "id": 3478520882, "lat": 27.8396581, "lon": 85.0848663, "tags": {"place": "hamlet"}}, {"type": "node", "id": 3478520883, "lat": 27.8399696, "lon": 85.0992342, "tags": {"place": "hamlet"}}, {"type": "node", "id": 3478520884, "lat": 27.8405698, "lon": 85.0950947, "tags": {"place": "hamlet"}}, {"type": "node", "id": 3478520885, "lat": 27.8409843, "lon": 85.0788089, "tags": {"place": "hamlet"}}, {"type": "node", "id": 3478521308, "lat": 27.8442626, "lon": 85.0771418, "tags": {"place": "hamlet"}}, {"type": "node", "id": 3478521311, "lat": 27.8443901, "lon": 85.0925171, "tags": {"place": "hamlet"}}, {"type": "node", "id": 3478521321, "lat": 27.8478341, "lon": 85.0983759, "tags": {"place": "hamlet"}}, {"type": "node", "id": 3478521322, "lat": 27.8479064, "lon": 85.088524, "tags": {"place": "hamlet"}}, {"type": "node", "id": 3478521327, "lat": 27.8485431, "lon": 85.0915107, "tags": {"place": "hamlet"}}, {"type": "node", "id": 3478521328, "lat": 27.8485609, "lon": 85.0793711, "tags": {"place": "hamlet"}}, {"type": "node", "id": 3478521329, "lat": 27.8505689, "lon": 85.0863883, "tags": {"place": "hamlet"}}, {"type": "node", "id": 3478521330, "lat": 27.8506597, "lon": 85.0962925, "tags": {"place": "hamlet"}}, {"type": "node", "id": 3478521331, "lat": 27.8522184, "lon": 85.0903569, "tags": {"place": "hamlet"}}, {"type": "node", "id": 3478521332, "lat": 27.8528229, "lon": 85.0980518, "tags": {"place": "hamlet"}}, {"type": "node", "id": 3478521337, "lat": 27.8542441, "lon": 85.0809059, "tags": {"place": "hamlet"}}, {"type": "node", "id": 3478521338, "lat": 27.8545303, "lon": 85.0972662, "tags": {"place": "hamlet"}}, {"type": "node", "id": 3478521339, "lat": 27.8579257, "lon": 85.08496, "tags": {"place": "hamlet"}}, {"type": "node", "id": 3478521340, "lat": 27.8581113, "lon": 85.0947694, "tags": {"place": "hamlet"}}, {"type": "node", "id": 3478712633, "lat": 27.8588998, "lon": 85.0532703}, {"type": "node", "id": 3479006215, "lat": 27.8573456, "lon": 85.0468449}, {"type": "node", "id": 3479006218, "lat": 27.8573344, "lon": 85.0470384}, {"type": "node", "id": 3480241700, "lat": 28.0932325, "lon": 85.0660661, "tags": {"place": "isolated_dwelling"}}, {"type": "node", "id": 3480241701, "lat": 28.0970575, "lon": 85.0683725, "tags": {"place": "isolated_dwelling"}}, {"type": "node", "id": 3480336604, "lat": 28.0267576, "lon": 85.1114794, "tags": {"place": "village"}}, {"type": "node", "id": 3481360246, "lat": 27.727273, "lon": 85.3682897, "tags": {"name": "\u0924\u093f\u0928\u094d\u091a\u0941\u0932\u0940 ", "name:en": "Tinchuli", "name:ne": "\u0924\u093f\u0928\u094d\u091a\u0941\u0932\u0940 ", "place": "suburb"}}, {"type": "node", "id": 3483489143, "lat": 27.7844898, "lon": 85.2942393, "tags": {"place": "village"}}, {"type": "node", "id": 3483489147, "lat": 27.7853515, "lon": 85.2831019, "tags": {"place": "village"}}, {"type": "node", "id": 3483492615, "lat": 27.7816654, "lon": 85.2876323, "tags": {"place": "isolated_dwelling"}}, {"type": "node", "id": 3483616920, "lat": 27.7835654, "lon": 85.3090044, "tags": {"place": "hamlet"}}, {"type": "node", "id": 3483616921, "lat": 27.7860167, "lon": 85.3015947, "tags": {"place": "hamlet"}}, {"type": "node", "id": 3483616922, "lat": 27.7876956, "lon": 85.312303, "tags": {"place": "hamlet"}}, {"type": "node", "id": 3483616923, "lat": 27.7888188, "lon": 85.3076232, "tags": {"place": "hamlet"}}, {"type": "node", "id": 3483616927, "lat": 27.7894826, "lon": 85.3189275, "tags": {"place": "hamlet"}}, {"type": "node", "id": 3483616928, "lat": 27.7914668, "lon": 85.3013097, "tags": {"place": "hamlet"}}, {"type": "node", "id": 3483616931, "lat": 27.7974897, "lon": 85.3153026, "tags": {"place": "village"}}, {"type": "node", "id": 3483827895, "lat": 27.8374413, "lon": 85.3473241, "tags": {"place": "village"}}, {"type": "node", "id": 3483839723, "lat": 27.8318082, "lon": 85.3446439, "tags": {"place": "hamlet"}}, {"type": "node", "id": 3483839760, "lat": 27.8389113, "lon": 85.3436442, "tags": {"place": "hamlet"}}, {"type": "node", "id": 3484404878, "lat": 27.987457, "lon": 85.2447622, "tags": {"place": "hamlet"}}, {"type": "node", "id": 3484417792, "lat": 27.9945574, "lon": 85.2721161, "tags": {"place": "hamlet"}}, {"type": "node", "id": 3484453634, "lat": 27.8994037, "lon": 85.1671039, "tags": {"place": "hamlet"}}, {"type": "node", "id": 3484453635, "lat": 27.9027345, "lon": 85.1677864, "tags": {"place": "hamlet"}}, {"type": "node", "id": 3484453636, "lat": 27.9109717, "lon": 85.1698489, "tags": {"place": "hamlet"}}, {"type": "node", "id": 3484453637, "lat": 27.9146656, "lon": 85.1761161, "tags": {"place": "hamlet"}}, {"type": "node", "id": 3486490932, "lat": 27.9488811, "lon": 85.046933, "tags": {"name": "Samari", "place": "hamlet"}}, {"type": "node", "id": 3486781262, "lat": 27.7201561, "lon": 85.3578072, "tags": {"name": "\u091f\u0941\u0938\u093e\u0932", "name:en": "Tusal", "name:ne": "\u091f\u0941\u0938\u093e\u0932", "place": "neighbourhood", "source": "KMC ward profile"}}, {"type": "node", "id": 3486797323, "lat": 27.7651026, "lon": 85.1364402}, {"type": "node", "id": 3486797325, "lat": 27.7652049, "lon": 85.1366031}, {"type": "node", "id": 3486797326, "lat": 27.7652096, "lon": 85.1362614}, {"type": "node", "id": 3486797327, "lat": 27.7653584, "lon": 85.1366189}, {"type": "node", "id": 3486797328, "lat": 27.765684, "lon": 85.1362036}, {"type": "node", "id": 3486797329, "lat": 27.7657351, "lon": 85.1363613}, {"type": "node", "id": 3486797330, "lat": 27.7660467, "lon": 85.1404085}, {"type": "node", "id": 3486797331, "lat": 27.7661909, "lon": 85.1401667}, {"type": "node", "id": 3486797332, "lat": 27.7662514, "lon": 85.140419}, {"type": "node", "id": 3486797333, "lat": 27.7662955, "lon": 85.1400952}, {"type": "node", "id": 3486797334, "lat": 27.7663677, "lon": 85.1398303}, {"type": "node", "id": 3486797335, "lat": 27.7663956, "lon": 85.1404032}, {"type": "node", "id": 3486797336, "lat": 27.7664653, "lon": 85.1401615}, {"type": "node", "id": 3486797337, "lat": 27.7664746, "lon": 85.1396621}, {"type": "node", "id": 3486797338, "lat": 27.7665304, "lon": 85.1399302}, {"type": "node", "id": 3486797339, "lat": 27.7665397, "lon": 85.1402718}, {"type": "node", "id": 3486797340, "lat": 27.7665863, "lon": 85.1396253}, {"type": "node", "id": 3486797341, "lat": 27.766656, "lon": 85.1396464}, {"type": "node", "id": 3486797342, "lat": 27.7666653, "lon": 85.1398146}, {"type": "node", "id": 3486910168, "lat": 27.8974199, "lon": 85.0662964, "tags": {"place": "hamlet"}}, {"type": "node", "id": 3486948707, "lat": 27.8065259, "lon": 85.0384092}, {"type": "node", "id": 3486948709, "lat": 27.806523, "lon": 85.0382361}, {"type": "node", "id": 3486948710, "lat": 27.8065588, "lon": 85.0385572}, {"type": "node", "id": 3486948717, "lat": 27.8066497, "lon": 85.0382396}, {"type": "node", "id": 3486948718, "lat": 27.8066603, "lon": 85.0386883}, {"type": "node", "id": 3486948722, "lat": 27.8067866, "lon": 85.0386897}, {"type": "node", "id": 3486948728, "lat": 27.8069352, "lon": 85.0385931}, {"type": "node", "id": 3486948730, "lat": 27.8069724, "lon": 85.0382577}, {"type": "node", "id": 3486948732, "lat": 27.8069481, "lon": 85.0754226}, {"type": "node", "id": 3486948735, "lat": 27.8071073, "lon": 85.0753528}, {"type": "node", "id": 3486948736, "lat": 27.8071565, "lon": 85.0754246}, {"type": "node", "id": 3486948737, "lat": 27.8071999, "lon": 85.0760593}, {"type": "node", "id": 3486948738, "lat": 27.8073541, "lon": 85.0755678}, {"type": "node", "id": 3486948739, "lat": 27.807585, "lon": 85.075834}, {"type": "node", "id": 3486948742, "lat": 27.8075717, "lon": 85.0760701}, {"type": "node", "id": 3486948747, "lat": 27.8074035, "lon": 85.0761769}, {"type": "node", "id": 3486948748, "lat": 27.8074699, "lon": 85.0761081}, {"type": "node", "id": 3486948926, "lat": 27.8154816, "lon": 85.0704853}, {"type": "node", "id": 3486948927, "lat": 27.8154409, "lon": 85.0709822}, {"type": "node", "id": 3486948929, "lat": 27.8155609, "lon": 85.0703471}, {"type": "node", "id": 3486948930, "lat": 27.8155769, "lon": 85.0707975}, {"type": "node", "id": 3486948931, "lat": 27.8155461, "lon": 85.0712034}, {"type": "node", "id": 3486948932, "lat": 27.8156215, "lon": 85.0708378}, {"type": "node", "id": 3486948933, "lat": 27.8156525, "lon": 85.07066}, {"type": "node", "id": 3486948941, "lat": 27.815807, "lon": 85.0709834}, {"type": "node", "id": 3486948947, "lat": 27.8159032, "lon": 85.0704281}, {"type": "node", "id": 3486948963, "lat": 27.8161266, "lon": 85.0705458}, {"type": "node", "id": 3486948965, "lat": 27.8161428, "lon": 85.0706555}, {"type": "node", "id": 3487033758, "lat": 27.8973866, "lon": 85.2821864}, {"type": "node", "id": 3487033759, "lat": 27.8974327, "lon": 85.2822346}, {"type": "node", "id": 3487033760, "lat": 27.8974681, "lon": 85.2821022}, {"type": "node", "id": 3487033761, "lat": 27.8975248, "lon": 85.2821584}, {"type": "node", "id": 3487033762, "lat": 27.8980918, "lon": 85.2817133}, {"type": "node", "id": 3487033763, "lat": 27.8980954, "lon": 85.2817694}, {"type": "node", "id": 3487033764, "lat": 27.8981875, "lon": 85.2817013}, {"type": "node", "id": 3487033765, "lat": 27.898191, "lon": 85.2817774}, {"type": "node", "id": 3487033766, "lat": 27.8983399, "lon": 85.2814875}, {"type": "node", "id": 3487033767, "lat": 27.8983611, "lon": 85.2815556}, {"type": "node", "id": 3487033768, "lat": 27.8985915, "lon": 85.2814273}, {"type": "node", "id": 3487033769, "lat": 27.8986092, "lon": 85.2814955}, {"type": "node", "id": 3487033770, "lat": 27.8991195, "lon": 85.2824751}, {"type": "node", "id": 3487033771, "lat": 27.8991443, "lon": 85.2825393}, {"type": "node", "id": 3487033772, "lat": 27.8991514, "lon": 85.2811399}, {"type": "node", "id": 3487033773, "lat": 27.8991727, "lon": 85.281204}, {"type": "node", "id": 3487033774, "lat": 27.8991868, "lon": 85.2833132}, {"type": "node", "id": 3487033775, "lat": 27.8991975, "lon": 85.2824431}, {"type": "node", "id": 3487033776, "lat": 27.8992223, "lon": 85.2811038}, {"type": "node", "id": 3487033777, "lat": 27.8992294, "lon": 85.2825072}, {"type": "node", "id": 3487033778, "lat": 27.8992365, "lon": 85.283241}, {"type": "node", "id": 3487033779, "lat": 27.89924, "lon": 85.28118}, {"type": "node", "id": 3487033780, "lat": 27.8992542, "lon": 85.2833814}, {"type": "node", "id": 3487033781, "lat": 27.8992648, "lon": 85.2816692}, {"type": "node", "id": 3487033782, "lat": 27.8992861, "lon": 85.2817454}, {"type": "node", "id": 3487033783, "lat": 27.8992967, "lon": 85.2833012}, {"type": "node", "id": 3487033784, "lat": 27.8993463, "lon": 85.281601}, {"type": "node", "id": 3487033785, "lat": 27.8993747, "lon": 85.2817173}, {"type": "node", "id": 3487033786, "lat": 27.8994774, "lon": 85.2815489}, {"type": "node", "id": 3487033787, "lat": 27.8995022, "lon": 85.281609}, {"type": "node", "id": 3487033788, "lat": 27.8995554, "lon": 85.2815048}, {"type": "node", "id": 3487033789, "lat": 27.8995802, "lon": 85.281581}, {"type": "node", "id": 3487034433, "lat": 27.9094844, "lon": 85.2842074}, {"type": "node", "id": 3487034434, "lat": 27.9095022, "lon": 85.2843597}, {"type": "node", "id": 3487034435, "lat": 27.9095447, "lon": 85.2839908}, {"type": "node", "id": 3487034436, "lat": 27.9095659, "lon": 85.2838866}, {"type": "node", "id": 3487034437, "lat": 27.9095837, "lon": 85.2841512}, {"type": "node", "id": 3487034438, "lat": 27.9096085, "lon": 85.2843317}, {"type": "node", "id": 3487034439, "lat": 27.9096652, "lon": 85.2839908}, {"type": "node", "id": 3487034440, "lat": 27.9096722, "lon": 85.2838505}, {"type": "node", "id": 3487891611, "lat": 27.8995686, "lon": 85.0423901, "tags": {"place": "hamlet"}}, {"type": "node", "id": 3487899016, "lat": 27.9001375, "lon": 85.0357034, "tags": {"place": "hamlet"}}, {"type": "node", "id": 3488007976, "lat": 28.0358802, "lon": 85.3081759, "tags": {"alt_name_1": "Dunglang", "name": "Dogl\u0101ng", "place": "hamlet", "source": "GNS"}}, {"type": "node", "id": 3488007977, "lat": 28.0083138, "lon": 85.3136864, "tags": {"name": "Y\u0101rsa", "place": "hamlet", "source": "GNS"}}, {"type": "node", "id": 3488022929, "lat": 27.8982535, "lon": 85.1463477, "tags": {"alt_name_1": "Batter", "alt_name_2": "Battar", "name": "Bat\u0101r B\u0101z\u0101r", "name:ne": "\u092c\u091f\u093e\u0930 \u092c\u091c\u093e\u0930", "place": "suburb", "source": "GNS"}}, {"type": "node", "id": 3488022930, "lat": 27.9151007, "lon": 85.1647073, "tags": {"name": "Naw\u0101kot", "name:ne": "\u0928\u0941\u0935\u093e\u0915\u094b\u091f", "place": "hamlet", "source": "GNS"}}, {"type": "node", "id": 3488022931, "lat": 27.8359287, "lon": 85.1600139, "tags": {"name": "Kharka", "place": "hamlet", "source": "GNS"}}, {"type": "node", "id": 3488023633, "lat": 27.7883997, "lon": 85.2245076, "tags": {"name": "K\u0101lim\u0101te", "place": "hamlet", "source": "GNS"}}, {"type": "node", "id": 3488550901, "lat": 27.8997535, "lon": 85.0576397, "tags": {"place": "hamlet"}}, {"type": "node", "id": 3488550974, "lat": 27.9004578, "lon": 85.0597156, "tags": {"place": "hamlet"}}, {"type": "node", "id": 3488620377, "lat": 27.9131181, "lon": 84.9949665, "tags": {"name": "Kaulebhanjyang", "place": "hamlet"}}, {"type": "node", "id": 3488620383, "lat": 27.9215957, "lon": 85.026253, "tags": {"place": "hamlet"}}, {"type": "node", "id": 3489466397, "lat": 27.7869539, "lon": 85.2608941, "tags": {"name": "Kagati Gaun", "place": "village"}}, {"type": "node", "id": 3489923918, "lat": 27.9820602, "lon": 85.0221285, "tags": {"place": "village"}}, {"type": "node", "id": 3489935223, "lat": 27.9776833, "lon": 85.0316638, "tags": {"place": "village"}}, {"type": "node", "id": 3490636152, "lat": 27.8063447, "lon": 85.0043777}, {"type": "node", "id": 3490648071, "lat": 27.8060441, "lon": 84.9927169}, {"type": "node", "id": 3490858588, "lat": 28.10865, "lon": 85.100029, "tags": {"name": "Jharlang", "place": "village", "wikidata": "Q3417986", "wikipedia": "en:Jharlang"}}, {"type": "node", "id": 3493678199, "lat": 28.1769644, "lon": 85.0912114, "tags": {"name": "Kharsa Gaun", "place": "village"}}, {"type": "node", "id": 3495645007, "lat": 28.1840259, "lon": 85.0580231, "tags": {"place": "hamlet"}}, {"type": "node", "id": 3495947575, "lat": 28.0843399, "lon": 85.0614439, "tags": {"place": "village"}}, {"type": "node", "id": 3496148173, "lat": 27.7549468, "lon": 85.3471051, "tags": {"alt_name": "Dharmpur", "name": "\u0927\u0930\u092e\u092a\u0941\u0930", "name:en": "Dharampur", "name:ne": "\u0927\u0930\u092e\u092a\u0941\u0930", "place": "suburb", "source": "GNS"}}, {"type": "node", "id": 3496148174, "lat": 27.766667, "lon": 85.35, "tags": {"alt_name_1": "Khadka Gaun", "alt_name_2": "Khadka", "flag_skip": "lat-lon", "name": "\u0916\u0921\u094d\u0915\u093e\u0917\u093e\u0909\u0901", "name:en": "Khadkagaon", "name:ne": "\u0916\u0921\u094d\u0915\u093e\u0917\u093e\u0909\u0901", "place": "suburb", "source": "GNS"}}, {"type": "node", "id": 3496148176, "lat": 27.7916454, "lon": 85.330532, "tags": {"name": "Phulb\u0101ri", "place": "hamlet", "source": "GNS", "wikidata": "Q6973653"}}, {"type": "node", "id": 3496148178, "lat": 27.8554443, "lon": 85.304533, "tags": {"fixme": "residential area", "name": "Th\u0101p\u0101g\u0101on", "place": "hamlet", "source": "GNS"}}, {"type": "node", "id": 3496148179, "lat": 27.75, "lon": 85.333333, "tags": {"alt_name_1": "Tokna", "flag_skip": "lat", "name": "\u091f\u094b\u0916\u093e", "name:en": "Tokha", "name:ne": "\u091f\u094b\u0916\u093e", "place": "town", "population": "5152", "source": "GNS", "wikidata": "Q20809741", "wikipedia": "de:Tokha"}}, {"type": "node", "id": 3499299851, "lat": 28.0435674, "lon": 85.0960746}, {"type": "node", "id": 3499299853, "lat": 28.0440316, "lon": 85.0952763}, {"type": "node", "id": 3499299854, "lat": 28.0441394, "lon": 85.0974365}, {"type": "node", "id": 3499299855, "lat": 28.0444543, "lon": 85.0947691}, {"type": "node", "id": 3499299856, "lat": 28.0451009, "lon": 85.0981973}, {"type": "node", "id": 3499299865, "lat": 28.045648, "lon": 85.0979813}, {"type": "node", "id": 3499299866, "lat": 28.0456729, "lon": 85.0945155}, {"type": "node", "id": 3499299867, "lat": 28.0459796, "lon": 85.0946189}, {"type": "node", "id": 3499299868, "lat": 28.0461122, "lon": 85.0969669}, {"type": "node", "id": 3499299870, "lat": 28.0464852, "lon": 85.0951448}, {"type": "node", "id": 3499299871, "lat": 28.0465764, "lon": 85.0962061}, {"type": "node", "id": 3499801960, "lat": 27.89526, "lon": 85.146446, "tags": {"capital": "5", "name": "Bidur", "name:ja": "\u30d3\u30c9\u30a5\u30fc\u30eb", "place": "town", "population": "26750", "wikidata": "Q1844478", "wikipedia": "en:Bidur"}}, {"type": "node", "id": 3504477174, "lat": 28.0888653, "lon": 85.2222562, "tags": {"check_date": "11-SEP-12 15:21", "name": "Gogne", "place": "hamlet", "source": "helicopter pilot gpx"}}, {"type": "node", "id": 3504477175, "lat": 28.0280757, "lon": 85.1714444, "tags": {"check_date": "11-SEP-12 15:22", "name": "Jharkaleri", "place": "village", "source": "helicopter pilot gpx"}}, {"type": "node", "id": 3504477176, "lat": 28.02608, "lon": 85.17135, "tags": {"name": "Thulogaun", "place": "village", "source": "2015-05-04 reco mission report", "wikidata": "Q589566"}}, {"type": "node", "id": 3509365500, "lat": 27.8369967, "lon": 84.9609591}, {"type": "node", "id": 3509365501, "lat": 27.8372236, "lon": 84.9614252}, {"type": "node", "id": 3509365502, "lat": 27.8372459, "lon": 84.9624117}, {"type": "node", "id": 3509365503, "lat": 27.8373482, "lon": 84.9629393}, {"type": "node", "id": 3509365504, "lat": 27.8373226, "lon": 84.963138}, {"type": "node", "id": 3509365505, "lat": 27.8372044, "lon": 84.9631886}, {"type": "node", "id": 3509365506, "lat": 27.8369839, "lon": 84.9630549}, {"type": "node", "id": 3509365507, "lat": 27.8368305, "lon": 84.9633874}, {"type": "node", "id": 3509365508, "lat": 27.8365063, "lon": 84.9633177}, {"type": "node", "id": 3509365509, "lat": 27.8363121, "lon": 84.9629957}, {"type": "node", "id": 3509365510, "lat": 27.8366132, "lon": 84.9628815}, {"type": "node", "id": 3509365511, "lat": 27.8366005, "lon": 84.9626972}, {"type": "node", "id": 3509365512, "lat": 27.8369104, "lon": 84.9611578}, {"type": "node", "id": 3509368414, "lat": 27.8357651, "lon": 84.9606129}, {"type": "node", "id": 3509368415, "lat": 27.8359721, "lon": 84.9607608}, {"type": "node", "id": 3509368416, "lat": 27.8358958, "lon": 84.9610782}, {"type": "node", "id": 3509368417, "lat": 27.835588, "lon": 84.9611244}, {"type": "node", "id": 3509368418, "lat": 27.8352174, "lon": 84.961072}, {"type": "node", "id": 3509368419, "lat": 27.8349695, "lon": 84.9612784}, {"type": "node", "id": 3509368420, "lat": 27.8345717, "lon": 84.9614972}, {"type": "node", "id": 3509368421, "lat": 27.8341412, "lon": 84.9615927}, {"type": "node", "id": 3509368422, "lat": 27.8340649, "lon": 84.9613585}, {"type": "node", "id": 3509368423, "lat": 27.8339369, "lon": 84.9613216}, {"type": "node", "id": 3509368424, "lat": 27.8338306, "lon": 84.9613832}, {"type": "node", "id": 3509368425, "lat": 27.8332912, "lon": 84.9614201}, {"type": "node", "id": 3509368426, "lat": 27.8332993, "lon": 84.9615526}, {"type": "node", "id": 3509368427, "lat": 27.833174, "lon": 84.9616143}, {"type": "node", "id": 3509368428, "lat": 27.8329697, "lon": 84.9615187}, {"type": "node", "id": 3509368429, "lat": 27.8328552, "lon": 84.9614849}, {"type": "node", "id": 3509368430, "lat": 27.8326073, "lon": 84.9614386}, {"type": "node", "id": 3509368431, "lat": 27.8326427, "lon": 84.9612507}, {"type": "node", "id": 3509368432, "lat": 27.8329043, "lon": 84.9611767}, {"type": "node", "id": 3509368433, "lat": 27.8330187, "lon": 84.9610104}, {"type": "node", "id": 3509368434, "lat": 27.8332094, "lon": 84.9607392}, {"type": "node", "id": 3509368435, "lat": 27.8334056, "lon": 84.9606992}, {"type": "node", "id": 3509368436, "lat": 27.8340295, "lon": 84.960995}, {"type": "node", "id": 3509368437, "lat": 27.8346889, "lon": 84.9610381}, {"type": "node", "id": 3509368438, "lat": 27.8350894, "lon": 84.960844}, {"type": "node", "id": 3509368439, "lat": 27.8354354, "lon": 84.9606191}, {"type": "node", "id": 3524783701, "lat": 27.7715308, "lon": 85.3587747, "tags": {"name": "\u0930\u0941\u0926\u094d\u0930\u0947\u0936\u094d\u0935\u0930 \u091a\u094b\u0915", "name:en": "Rudreswar Chowk", "name:ne": "\u0930\u0941\u0926\u094d\u0930\u0947\u0936\u094d\u0935\u0930 \u091a\u094b\u0915", "place": "locality"}}, {"type": "node", "id": 3641456686, "lat": 27.7205447, "lon": 85.3489271, "tags": {"name": "\u0936\u093e\u0928\u094d\u0924\u0940 \u0917\u094b\u0930\u0947\u091f\u094b", "name:en": "Shanti Goreto", "name:ne": "\u0936\u093e\u0928\u094d\u0924\u0940 \u0917\u094b\u0930\u0947\u091f\u094b", "place": "neighbourhood", "source": "KMC ward profile"}}, {"type": "node", "id": 3651242335, "lat": 27.9038871, "lon": 85.2820927, "tags": {"place": "hamlet"}}, {"type": "node", "id": 3691036082, "lat": 28.1792561, "lon": 85.0690275, "tags": {"name": "Gobre gaun", "place": "hamlet"}}, {"type": "node", "id": 3691036083, "lat": 28.1706683, "lon": 85.0692434, "tags": {"name": "Awoi Gaun", "place": "village"}}, {"type": "node", "id": 3691036084, "lat": 28.1692893, "lon": 85.0613069, "tags": {"name": "Isim Gaon", "place": "village"}}, {"type": "node", "id": 3691036085, "lat": 28.166719, "lon": 85.0626664, "tags": {"name": "Khyadar", "place": "village"}}, {"type": "node", "id": 3691036086, "lat": 28.1556051, "lon": 85.0514143, "tags": {"name": "Ramden (Ukhum)", "place": "village"}}, {"type": "node", "id": 3691065952, "lat": 28.0036486, "lon": 85.1638055, "tags": {"name": "Satdobato", "place": "village"}}, {"type": "node", "id": 3691065953, "lat": 28.0065075, "lon": 85.1248554, "tags": {"name": "Bhalche Thulogaun", "place": "village"}}, {"type": "node", "id": 3691071165, "lat": 28.0039377, "lon": 85.1339967, "tags": {"alt_name": "Nujet Gaon", "name": "Nyuchet Gaon", "place": "village"}}, {"type": "node", "id": 3691071166, "lat": 28.0425203, "lon": 85.1089248, "tags": {"name": "Rupchet Kharka", "place": "hamlet"}}, {"type": "node", "id": 3691071167, "lat": 28.0266442, "lon": 85.1115011, "tags": {"name": "Bhache Thulo Gaon", "place": "village"}}, {"type": "node", "id": 3743635332, "lat": 27.9241714, "lon": 84.9977523, "tags": {"name": "Paatle", "place": "hamlet"}}, {"type": "node", "id": 3743635333, "lat": 27.9316319, "lon": 84.989065, "tags": {"name": "gahate", "place": "neighbourhood"}}, {"type": "node", "id": 3766701675, "lat": 27.7421692, "lon": 85.3326223, "tags": {"name": "\u092c\u0938\u0941\u0928\u094d\u0927\u0930\u093e", "name:bn": "\u09ac\u09b8\u09c1\u09a8\u09cd\u09a7\u09b0\u09be", "name:en": "Basundhara", "name:ne": "\u092c\u0938\u0941\u0928\u094d\u0927\u0930\u093e", "place": "square"}}, {"type": "node", "id": 3853808644, "lat": 27.7879426, "lon": 85.2401043, "tags": {"name": "Chatredeurali", "place": "village"}}, {"type": "node", "id": 3981494409, "lat": 27.7285086, "lon": 85.351849, "tags": {"name": "\u0928\u093e\u0930\u093e\u092f\u0923 \u091a\u094b\u0915", "name:en": "Narayan Chok", "name:ne": "\u0928\u093e\u0930\u093e\u092f\u0923 \u091a\u094b\u0915", "place": "neighbourhood"}}, {"type": "node", "id": 4034389060, "lat": 27.7329872, "lon": 85.3513449, "tags": {"name": "Rudramati Chowk", "place": "neighbourhood"}}, {"type": "node", "id": 4044344045, "lat": 27.8366189, "lon": 85.0611359, "tags": {"name": "Duipipal", "place": "village"}}, {"type": "node", "id": 4156044161, "lat": 27.8591015, "lon": 85.1093769, "tags": {"name": "Devighat Bazar", "place": "village"}}, {"type": "node", "id": 4158627691, "lat": 27.9915622, "lon": 85.1010327, "tags": {"name": "Bomotang Big Village", "place": "village"}}, {"type": "node", "id": 4226430340, "lat": 28.0182105, "lon": 85.0881494, "tags": {"name": "Chiput village", "place": "hamlet"}}, {"type": "node", "id": 4226430341, "lat": 28.0284567, "lon": 85.0868336, "tags": {"name": "Ghale Gau", "name:en": "Ghale Village", "place": "village"}}, {"type": "node", "id": 4226430342, "lat": 28.0195724, "lon": 85.0841951, "tags": {"name": "Gumsa village", "place": "hamlet"}}, {"type": "node", "id": 4226430344, "lat": 28.0001697, "lon": 85.1726939, "tags": {"name": "Kari Village", "place": "village"}}, {"type": "node", "id": 4226430345, "lat": 28.0051298, "lon": 85.1387902, "tags": {"name": "Kaule Village", "place": "village"}}, {"type": "node", "id": 4226430347, "lat": 28.0295705, "lon": 85.0880604, "tags": {"name": "Thulo Gau", "name:en": "Thulo Village", "place": "village"}}, {"type": "node", "id": 4301134727, "lat": 27.8606354, "lon": 85.3090828, "tags": {"name": "Dumre", "place": "hamlet"}}, {"type": "node", "id": 4329099610, "lat": 27.7382748, "lon": 85.3097478, "tags": {"name": "\u0926\u093f\u092a\u091c\u094d\u092f\u094b\u0924\u093f", "name:en": "Deepjyoti", "name:ne": "\u0926\u093f\u092a\u091c\u094d\u092f\u094b\u0924\u093f", "place": "neighbourhood"}}, {"type": "node", "id": 4329099611, "lat": 27.7438382, "lon": 85.3105723, "tags": {"name": "\u0932\u094b\u0915\u0924\u093e\u0928\u094d\u0924\u094d\u0930\u093f\u0915 \u091a\u094b\u0915", "name:en": "Loktantrik Chowk", "name:ne": "\u0932\u094b\u0915\u0924\u093e\u0928\u094d\u0924\u094d\u0930\u093f\u0915 \u091a\u094b\u0915", "place": "neighbourhood"}}, {"type": "node", "id": 4384922569, "lat": 27.7101558, "lon": 85.3239957, "tags": {"name": "\u0915\u092e\u0932\u092a\u094b\u0916\u0930\u0940", "name:en": "Kamalpokhari", "name:ne": "\u0915\u092e\u0932\u092a\u094b\u0916\u0930\u0940", "place": "neighbourhood"}}, {"type": "node", "id": 4443815793, "lat": 27.7352622, "lon": 85.3182163, "tags": {"name": "\u0938\u093e\u092e\u093e\u0916\u0941\u0938\u0940 \u091a\u094b\u0915", "name:en": "Samakhushi Chowk", "name:ne": "\u0938\u093e\u092e\u093e\u0916\u0941\u0938\u0940 \u091a\u094b\u0915", "place": "square"}}, {"type": "node", "id": 4457843677, "lat": 27.8369548, "lon": 84.9625502}, {"type": "node", "id": 4457843678, "lat": 27.8369172, "lon": 84.9625466}, {"type": "node", "id": 4457843679, "lat": 27.8369485, "lon": 84.9626103}, {"type": "node", "id": 4457854786, "lat": 27.8349399, "lon": 84.9612947}, {"type": "node", "id": 4457870639, "lat": 27.8314415, "lon": 84.9618764, "tags": {"name": "White Soil Pocket Area", "place": "locality"}}, {"type": "node", "id": 4457882742, "lat": 27.8136994, "lon": 84.9653239}, {"type": "node", "id": 4457882743, "lat": 27.8137807, "lon": 84.9654189}, {"type": "node", "id": 4457882744, "lat": 27.8138329, "lon": 84.9655371}, {"type": "node", "id": 4457882745, "lat": 27.8135991, "lon": 84.9660763}, {"type": "node", "id": 4457882746, "lat": 27.8136638, "lon": 84.9662489}, {"type": "node", "id": 4457882747, "lat": 27.8134909, "lon": 84.9666224}, {"type": "node", "id": 4457882748, "lat": 27.8138511, "lon": 84.9656676}, {"type": "node", "id": 4457882749, "lat": 27.8138337, "lon": 84.9657983}, {"type": "node", "id": 4457882750, "lat": 27.8137822, "lon": 84.965917}, {"type": "node", "id": 4457882751, "lat": 27.8137016, "lon": 84.9660126}, {"type": "node", "id": 4457882752, "lat": 27.813103, "lon": 84.9664518}, {"type": "node", "id": 4457882753, "lat": 27.8117812, "lon": 84.9665316}, {"type": "node", "id": 4457882754, "lat": 27.8124806, "lon": 84.9656151}, {"type": "node", "id": 4457882755, "lat": 27.8130888, "lon": 84.9656046}, {"type": "node", "id": 4457882756, "lat": 27.8131305, "lon": 84.9654634}, {"type": "node", "id": 4457882757, "lat": 27.8132119, "lon": 84.9653466}, {"type": "node", "id": 4457882758, "lat": 27.8133235, "lon": 84.9652677}, {"type": "node", "id": 4457882759, "lat": 27.8134521, "lon": 84.9652362}, {"type": "node", "id": 4457882760, "lat": 27.8135825, "lon": 84.9652557}, {"type": "node", "id": 4457882761, "lat": 27.8124421, "lon": 84.966573}, {"type": "node", "id": 4523205706, "lat": 27.7569277, "lon": 85.3494691, "tags": {"name": "\u0939\u093e\u0924\u094d\u0924\u0940\u0917\u094c\u0921\u093e \u091a\u094b\u0915", "name:en": "Hattigauda Chowk", "name:ne": "\u0939\u093e\u0924\u094d\u0924\u0940\u0917\u094c\u0921\u093e \u091a\u094b\u0915", "place": "locality"}}, {"type": "node", "id": 4527737984, "lat": 27.7654604, "lon": 85.1367393}, {"type": "node", "id": 4607640096, "lat": 27.7587699, "lon": 85.2705237, "tags": {"name": "Mudkhu", "name:en": "\u092e\u0941\u0921\u094d\u0916\u0942", "place": "village"}}, {"type": "node", "id": 4714732024, "lat": 28.0175192, "lon": 85.0816999, "tags": {"id": "34", "name": "Ambuchet", "place": "hamlet"}}, {"type": "node", "id": 4714732025, "lat": 28.0283415, "lon": 85.086801, "tags": {"id": "22", "name": "Bagale", "place": "hamlet"}}, {"type": "node", "id": 4714732026, "lat": 28.0292658, "lon": 85.0898205, "tags": {"id": "19", "name": "Bisang", "place": "hamlet"}}, {"type": "node", "id": 4714732027, "lat": 28.0303858, "lon": 85.0815812, "tags": {"name": "Boldogang", "place": "hamlet"}}, {"type": "node", "id": 4714732028, "lat": 28.0324954, "lon": 85.0937547, "tags": {"id": "10", "name": "Boldogang", "place": "hamlet"}}, {"type": "node", "id": 4714732029, "lat": 28.0359468, "lon": 85.0920629, "tags": {"id": "9", "name": "Bugyung", "place": "hamlet"}}, {"type": "node", "id": 4714732030, "lat": 28.0201521, "lon": 85.084688, "tags": {"id": "27", "name": "Chhekgu", "place": "hamlet"}}, {"type": "node", "id": 4714732031, "lat": 28.02866, "lon": 85.0881727, "tags": {"id": "18", "name": "Chokhor", "place": "hamlet"}}, {"type": "node", "id": 4714732032, "lat": 28.0295299, "lon": 85.0882884, "tags": {"id": "17", "name": "Dimdungkhor", "place": "hamlet"}}, {"type": "node", "id": 4714732033, "lat": 28.0291601, "lon": 85.0863772, "tags": {"id": "20", "name": "Gambetol", "place": "hamlet"}}, {"type": "node", "id": 4714732034, "lat": 28.029301, "lon": 85.0875901, "tags": {"id": "16", "name": "Gumbocho", "place": "hamlet"}}, {"type": "node", "id": 4714732035, "lat": 28.0170714, "lon": 85.0871354, "tags": {"id": "36", "name": "Gunsachet", "place": "hamlet"}}, {"type": "node", "id": 4714732036, "lat": 28.0197469, "lon": 85.0837802, "tags": {"id": "30", "name": "Gyap", "place": "hamlet"}}, {"type": "node", "id": 4714732037, "lat": 28.0189671, "lon": 85.090238, "tags": {"id": "26", "name": "Hop", "place": "hamlet"}}, {"type": "node", "id": 4714732038, "lat": 28.0276462, "lon": 85.086837, "tags": {"id": "24", "name": "Jesni", "place": "hamlet"}}, {"type": "node", "id": 4714732039, "lat": 28.0372428, "lon": 85.0934355, "tags": {"id": "8", "name": "Jongsa", "place": "hamlet"}}, {"type": "node", "id": 4714732040, "lat": 28.0378486, "lon": 85.1000429, "tags": {"id": "5", "name": "Jyarkuseppa", "place": "hamlet"}}, {"type": "node", "id": 4714732041, "lat": 28.0140426, "lon": 85.0838954, "tags": {"id": "37", "name": "Kalangdong", "place": "hamlet"}}, {"type": "node", "id": 4714732042, "lat": 28.0387642, "lon": 85.0930684, "tags": {"id": "6", "name": "Karshepa", "place": "hamlet"}}, {"type": "node", "id": 4714732043, "lat": 28.0389051, "lon": 85.0907063, "tags": {"id": "7", "name": "Kashyong", "place": "hamlet"}}, {"type": "node", "id": 4714732044, "lat": 28.0410603, "lon": 85.0955582, "tags": {"id": "4", "name": "Khatre", "place": "hamlet"}}, {"type": "node", "id": 4714732045, "lat": 28.0211297, "lon": 85.0881009, "tags": {"id": "26", "name": "Kiput", "place": "hamlet"}}, {"type": "node", "id": 4714732046, "lat": 28.0184316, "lon": 85.0832011, "tags": {"id": "33", "name": "Kolgang", "place": "hamlet"}}, {"type": "node", "id": 4714732048, "lat": 28.0427608, "lon": 85.0979822, "tags": {"name": "Marmuwa", "place": "hamlet"}}, {"type": "node", "id": 4714732049, "lat": 28.0402312, "lon": 85.0972789, "tags": {"id": "3", "name": "Pangling", "place": "hamlet"}}, {"type": "node", "id": 4714732050, "lat": 28.0195997, "lon": 85.0833574, "tags": {"id": "31", "name": "Pocho", "place": "hamlet"}}, {"type": "node", "id": 4714732051, "lat": 28.0192765, "lon": 85.0841257, "tags": {"id": "29", "name": "Uble", "place": "hamlet"}}, {"type": "node", "id": 4714732053, "lat": 28.0281867, "lon": 85.0859735, "tags": {"id": "23", "name": "Watibletol", "place": "hamlet"}}, {"type": "node", "id": 4714732054, "lat": 28.0302203, "lon": 85.0874984, "tags": {"id": "13", "name": "Yarsha", "place": "hamlet"}}, {"type": "node", "id": 4714732055, "lat": 28.0306006, "lon": 85.0872191, "tags": {"id": "12", "name": "Yarshagu", "place": "hamlet"}}, {"type": "node", "id": 4714732056, "lat": 28.0442016, "lon": 85.099197, "tags": {"name": "khosa", "place": "hamlet"}}, {"type": "node", "id": 4714732057, "lat": 28.0288009, "lon": 85.0865687, "tags": {"id": "21", "name": "Guthen", "place": "hamlet"}}, {"type": "node", "id": 4714732058, "lat": 28.0292621, "lon": 85.0884708, "tags": {"fixme": "please explain: tole = Metol", "id": "14", "place": "hamlet"}}, {"type": "node", "id": 4719615889, "lat": 27.7250256, "lon": 85.34074, "tags": {"name": "\u0927\u0941\u092e\u094d\u092c\u093e\u0930\u093e\u0939\u0940", "name:en": "Dhumbarahi", "name:ne": "\u0927\u0941\u092e\u094d\u092c\u093e\u0930\u093e\u0939\u0940", "place": "suburb"}}, {"type": "node", "id": 4719615890, "lat": 27.7242165, "lon": 85.3395719, "tags": {"name": "\u0927\u0941\u092e\u094d\u092c\u093e\u0930\u093e\u0939\u0940 \u092a\u093f\u092a\u0932 \u092c\u094b\u091f", "name:en": "Dhumbarahi Pipal Bot", "name:ne": "\u0927\u0941\u092e\u094d\u092c\u093e\u0930\u093e\u0939\u0940 \u092a\u093f\u092a\u0932 \u092c\u094b\u091f", "place": "neighbourhood"}}, {"type": "node", "id": 4727563924, "lat": 27.9546866, "lon": 85.1417166, "tags": {"name": "Bhairamkot", "place": "village"}}, {"type": "node", "id": 4727563925, "lat": 27.9584152, "lon": 85.1347193, "tags": {"name": "Bhairamkot", "place": "village"}}, {"type": "node", "id": 4727563926, "lat": 27.9516886, "lon": 85.1437891, "tags": {"name": "Bhyagute", "place": "village"}}, {"type": "node", "id": 4727563927, "lat": 27.9545859, "lon": 85.1464511, "tags": {"name": "Gagate", "place": "village"}}, {"type": "node", "id": 4727563928, "lat": 27.9543843, "lon": 85.1338826, "tags": {"name": "Gairathok", "place": "village"}}, {"type": "node", "id": 4727563929, "lat": 27.9580289, "lon": 85.1309735, "tags": {"name": "Gairathok", "place": "village"}}, {"type": "node", "id": 4727563930, "lat": 27.9560376, "lon": 85.149533, "tags": {"name": "Jafati", "place": "village"}}, {"type": "node", "id": 4737390099, "lat": 27.7649427, "lon": 85.3499464}, {"type": "node", "id": 4737390100, "lat": 27.7647087, "lon": 85.3501534}, {"type": "node", "id": 4737390101, "lat": 27.7648409, "lon": 85.3503431}, {"type": "node", "id": 4737390102, "lat": 27.7649122, "lon": 85.3505674}, {"type": "node", "id": 4737390103, "lat": 27.7650037, "lon": 85.3507571}, {"type": "node", "id": 4737390104, "lat": 27.7651258, "lon": 85.3507859}, {"type": "node", "id": 4737390105, "lat": 27.7654565, "lon": 85.3508146}, {"type": "node", "id": 4737390106, "lat": 27.7655888, "lon": 85.3507974}, {"type": "node", "id": 4737390107, "lat": 27.765599, "lon": 85.3504351}, {"type": "node", "id": 4930536947, "lat": 28.1703058, "lon": 85.070832, "tags": {"name": "Sertung", "name:ne": "\u0938\u0947\u0930\u0924\u0941\u0919", "place": "village"}}, {"type": "node", "id": 4935116639, "lat": 27.7592329, "lon": 85.1598465, "tags": {"name": "Jiwanpur", "name:ne": "\u091c\u093f\u0935\u0928\u092a\u0941\u0930", "place": "hamlet"}}, {"type": "node", "id": 4935120590, "lat": 27.7596469, "lon": 85.1037019, "tags": {"name": "Kewalpur", "name:ne": "\u0915\u0947\u0935\u0932\u092a\u0941\u0930", "place": "village"}}, {"type": "node", "id": 4935193787, "lat": 27.7672397, "lon": 85.0851322, "tags": {"name": "Goganpani", "name:ne": "\u0917\u094b\u0917\u0928\u092a\u093e\u0928\u0940", "place": "hamlet"}}, {"type": "node", "id": 4936553806, "lat": 27.9308766, "lon": 84.9887511, "tags": {"name": "Dhuwakot", "name:ne": "\u0927\u0941\u0935\u093e\u0915\u094b\u091f", "place": "hamlet", "wikidata": "Q3410200", "wikipedia": "en:Dhuwakot"}}, {"type": "node", "id": 4936602231, "lat": 27.8188655, "lon": 85.005531, "tags": {"name": "Kalleri", "name:ne": "\u0915\u0932\u094d\u0932\u0947\u0930\u0940", "place": "village"}}, {"type": "node", "id": 4967599293, "lat": 28.0104572, "lon": 85.2536461, "tags": {"name": "Yarsa", "name:ne": "\u092f\u093e\u0930\u0938\u093e", "place": "village"}}, {"type": "node", "id": 4967657445, "lat": 28.0176954, "lon": 85.2884223, "tags": {"name": "Saramthali", "name:ne": "\u0938\u0930\u092e\u0925\u0932\u0940", "place": "village"}}, {"type": "node", "id": 4967937739, "lat": 28.0021505, "lon": 85.2112403, "tags": {"name": "Dhaibung", "name:ne": "\u0927\u0907\u092c\u0941\u0919", "place": "village"}}, {"type": "node", "id": 4967967500, "lat": 28.0134669, "lon": 85.1971528, "tags": {"name": "Laharepauwa", "name:ne": "\u0932\u0939\u0930\u0947\u092a\u0909\u0935\u093e", "place": "village", "wikidata": "Q7238382"}}, {"type": "node", "id": 5045958153, "lat": 27.8051522, "lon": 85.2676347, "tags": {"name": "Okharpauwa", "name:ne": "\u094b\u0916\u0930\u092a\u094c\u0935\u093e", "place": "hamlet"}}, {"type": "node", "id": 5046089165, "lat": 27.8570408, "lon": 85.2876403, "tags": {"name": "Thanapati", "name:ne": "\u0925\u0928\u092a\u093e\u091f\u0940", "place": "village"}}, {"type": "node", "id": 5046103275, "lat": 27.8442987, "lon": 85.3497857, "tags": {"name": "Samundradevi", "name:ne": "\u0938\u092e\u0941\u0928\u094d\u0926\u094d\u0930\u0926\u0947\u0935\u0940", "place": "village"}}, {"type": "node", "id": 5047291810, "lat": 27.8688503, "lon": 85.2149982, "tags": {"name": "\u091a\u0924\u0941\u0930\u093e\u0932\u0947", "name:en": "Chaturale", "name:ne": "\u091a\u0924\u0941\u0930\u093e\u0932\u0947", "place": "village", "wikidata": "Q3411983", "wikipedia": "en:Chaturale"}}, {"type": "node", "id": 5047306168, "lat": 27.8326792, "lon": 85.2493381, "tags": {"name": "Dadagaun", "name:en": "Dadagaun", "name:ne": "\u0921\u093e\u0921\u093e\u0917\u093e\u0901\u0909", "place": "hamlet"}}, {"type": "node", "id": 5047367834, "lat": 27.8432807, "lon": 85.36269, "tags": {"name": "Sikre", "name:ne": "\u0938\u093f\u0915\u094d\u0930\u0947", "place": "village"}}, {"type": "node", "id": 5047986859, "lat": 27.8731874, "lon": 85.3234904, "tags": {"name": "Bhadratar", "name:ne": "\u092d\u093e\u0926\u094d\u0930\u091f\u093e\u0930", "place": "hamlet", "wikidata": "Q4900564", "wikipedia": "en:Bhadratar"}}, {"type": "node", "id": 5052630542, "lat": 27.9770202, "lon": 85.2980629, "tags": {"name": "Lachyang", "name:ne": "\u0932\u091b\u094d\u092f\u093e\u0919", "place": "village"}}, {"type": "node", "id": 5052655881, "lat": 27.9196891, "lon": 85.282362, "tags": {"name": "Narjamandap", "name:ne": "\u0928\u093e\u0930\u091c\u093e\u092e\u0928\u0921\u092a", "place": "hamlet"}}, {"type": "node", "id": 5052696006, "lat": 27.9174076, "lon": 85.2265449, "tags": {"name": "Haldekalika", "name:ne": "\u0939\u0932\u094d\u0926\u0940\u0915\u093e\u0932\u093f\u0915\u093e", "place": "village"}}, {"type": "node", "id": 5052958023, "lat": 27.9142691, "lon": 85.2276958, "tags": {"name": "Ganeshthan", "name:ne": "\u0917\u0923\u0947\u0938\u094d\u0925\u093e\u0928", "place": "village"}}, {"type": "node", "id": 5052970038, "lat": 27.8945027, "lon": 85.2220152, "tags": {"name": "Suryamati", "name:ne": "\u0938\u0941\u0930\u094d\u092f\u092e\u0924\u0940", "place": "village"}}, {"type": "node", "id": 5052982160, "lat": 27.9038811, "lon": 85.2693535, "tags": {"name": "Chaughada", "name:ne": "\u091a\u094c\u0918\u0921\u093e", "place": "hamlet", "wikidata": "Q3412099", "wikipedia": "en:Chaughada"}}, {"type": "node", "id": 5053008554, "lat": 27.884443, "lon": 85.2829508, "tags": {"name": "Kabilas", "name:ne": "\u0915\u092c\u0940\u0932\u093e\u0938", "place": "village"}}, {"type": "node", "id": 5053248232, "lat": 27.8833128, "lon": 85.2260392, "tags": {"name": "Thansing", "name:ne": "\u0925\u093e\u0928\u0938\u0940\u0919", "place": "village"}}, {"type": "node", "id": 5053279576, "lat": 27.9132732, "lon": 85.0955416, "tags": {"name": "Khadag Bhanjyang", "name:ne": "\u0916\u0921\u0917 \u092d\u0928\u091c\u094d\u092f\u093e\u0919", "place": "hamlet"}}, {"type": "node", "id": 5053286319, "lat": 27.8979278, "lon": 85.1150773, "tags": {"name": "Charghare", "name:ne": "\u091a\u093e\u0930\u0918\u0930\u0947", "place": "hamlet", "wikidata": "Q965414", "wikipedia": "en:Charghare"}}, {"type": "node", "id": 5053326415, "lat": 27.8992856, "lon": 85.0573203, "tags": {"name": "Gorsyang", "name:ne": "\u0917\u094b\u0930\u0938\u094d\u092f\u093e\u0919", "place": "village", "wikidata": "Q3422239", "wikipedia": "en:Gorsyang"}}, {"type": "node", "id": 5055210667, "lat": 27.8342832, "lon": 85.1266646, "tags": {"name": "Jiling", "name:ne": "\u091c\u093f\u0932\u0940\u0919", "place": "village"}}, {"type": "node", "id": 5055225930, "lat": 27.829937, "lon": 85.0793822, "tags": {"name": "Duipipal", "name:ne": "\u0926\u0941\u0907\u092a\u0940\u092a\u0932", "place": "village"}}, {"type": "node", "id": 5055621837, "lat": 27.8530224, "lon": 85.0613809, "tags": {"name": "Ratmate", "name:ne": "\u0930\u093e\u0924\u092e\u093e\u091f\u0947", "place": "village", "wikidata": "Q3416006", "wikipedia": "en:Ratmate"}}, {"type": "node", "id": 5055848770, "lat": 27.8135471, "lon": 85.1761374, "tags": {"name": "Belkot", "name:ne": "\u092c\u0947\u0932\u0915\u094b\u091f", "place": "village"}}, {"type": "node", "id": 5056008594, "lat": 27.7939144, "lon": 85.1844464, "tags": {"name": "\u091a\u094c\u0920\u0947", "name:en": "Chauthe", "name:ne": "\u091a\u094c\u0920\u0947", "place": "village"}}, {"type": "node", "id": 5057875061, "lat": 27.9340322, "lon": 85.0897543, "tags": {"name": "Kalyanpur", "name:ne": "\u0915\u0932\u094d\u092f\u093e\u0928\u092a\u0941\u0930", "place": "hamlet"}}, {"type": "node", "id": 5063346880, "lat": 27.7748642, "lon": 85.1387654, "tags": {"name": "Kumari", "name:ne": "\u0915\u0941\u092e\u093e\u0930\u0940", "place": "village"}}, {"type": "node", "id": 5063441751, "lat": 27.976677, "lon": 85.1764149, "tags": {"name": "Tupche", "name:ne": "\u091f\u0941\u092a\u091a\u0947", "place": "village"}}, {"type": "node", "id": 5063608299, "lat": 28.0369012, "lon": 85.0942249, "tags": {"name": "Salme", "name:ne": "\u0938\u093e\u0932\u094d\u092e\u0947", "place": "hamlet"}}, {"type": "node", "id": 5063615453, "lat": 27.9636868, "lon": 85.1689901, "tags": {"name": "Gerkhu", "name:ne": "\u0917\u0947\u0930\u0916\u0942", "place": "village"}}, {"type": "node", "id": 5212357721, "lat": 27.7047944, "lon": 85.3419136, "tags": {"name": "\u092a\u093f\u092a\u0932 \u092c\u094b\u091f ", "name:en": "Pipple Bot", "name:ne": "\u092a\u093f\u092a\u0932 \u092c\u094b\u091f ", "place": "neighbourhood"}}, {"type": "node", "id": 5235619896, "lat": 27.8655756, "lon": 85.1281211, "tags": {"name": "Pipaltar", "place": "hamlet"}}, {"type": "node", "id": 5246856539, "lat": 27.7320532, "lon": 85.362334, "tags": {"name": "\u092b\u093e\u0907\u0915\u093e \u091a\u094b\u0915", "name:en": "Phaika Chok", "name:ne": "\u092b\u093e\u0907\u0915\u093e \u091a\u094b\u0915", "place": "locality"}}, {"type": "node", "id": 5411466640, "lat": 28.1312515, "lon": 85.2810647, "tags": {"name": "Pangling", "place": "village"}}, {"type": "node", "id": 5416051268, "lat": 27.7241762, "lon": 85.3605417}, {"type": "node", "id": 5416051269, "lat": 27.7240558, "lon": 85.36082}, {"type": "node", "id": 5416051270, "lat": 27.7242442, "lon": 85.3609241}, {"type": "node", "id": 5416051271, "lat": 27.7243647, "lon": 85.3606458}, {"type": "node", "id": 5425160179, "lat": 27.7155482, "lon": 85.3084577, "tags": {"alt_name": "B\u0101l\u0101ju", "name": "\u092a\u0915\u094d\u0928\u093e\u091c\u094b\u0932", "name:en": "Paknajol", "name:ne": "\u092a\u0915\u094d\u0928\u093e\u091c\u094b\u0932", "place": "suburb", "source:alt_name": "GNS"}}, {"type": "node", "id": 5665537364, "lat": 27.7917367, "lon": 84.9571105}, {"type": "node", "id": 5665537365, "lat": 27.7916904, "lon": 84.9571427}, {"type": "node", "id": 5665537366, "lat": 27.7917153, "lon": 84.9572218}, {"type": "node", "id": 5665537367, "lat": 27.7917818, "lon": 84.9572272}, {"type": "node", "id": 5665537368, "lat": 27.7918743, "lon": 84.9572661}, {"type": "node", "id": 5665537369, "lat": 27.7919241, "lon": 84.9572473}, {"type": "node", "id": 5665537370, "lat": 27.7919241, "lon": 84.9571615}, {"type": "node", "id": 5665537371, "lat": 27.791847, "lon": 84.9571561}, {"type": "node", "id": 5665537372, "lat": 27.791815, "lon": 84.9571829}, {"type": "node", "id": 5665537373, "lat": 27.7918126, "lon": 84.9571507}, {"type": "node", "id": 5665537374, "lat": 27.7917664, "lon": 84.9571252}, {"type": "node", "id": 5665537375, "lat": 27.7917664, "lon": 84.9571132}, {"type": "node", "id": 5665537376, "lat": 27.7917486, "lon": 84.9571132}, {"type": "node", "id": 5665543996, "lat": 27.796141, "lon": 84.9591869}, {"type": "node", "id": 5665543997, "lat": 27.7961837, "lon": 84.9593908}, {"type": "node", "id": 5665543998, "lat": 27.7958848, "lon": 84.9595463}, {"type": "node", "id": 5665543999, "lat": 27.7958326, "lon": 84.9593264}, {"type": "node", "id": 5665544000, "lat": 27.7959939, "lon": 84.9592781}, {"type": "node", "id": 5665544010, "lat": 27.8037474, "lon": 84.9690627}, {"type": "node", "id": 5665544011, "lat": 27.8038782, "lon": 84.9693893}, {"type": "node", "id": 5665544012, "lat": 27.8040635, "lon": 84.9693955}, {"type": "node", "id": 5665544013, "lat": 27.8039818, "lon": 84.9696851}, {"type": "node", "id": 5665544014, "lat": 27.8036766, "lon": 84.9698145}, {"type": "node", "id": 5665544015, "lat": 27.8036438, "lon": 84.9695372}, {"type": "node", "id": 5665544016, "lat": 27.803791, "lon": 84.9694571}, {"type": "node", "id": 5665544017, "lat": 27.8036329, "lon": 84.9691367}, {"type": "node", "id": 5665545422, "lat": 27.8047011, "lon": 84.969399}, {"type": "node", "id": 5665545423, "lat": 27.8049845, "lon": 84.9693312}, {"type": "node", "id": 5665545424, "lat": 27.804979, "lon": 84.9695469}, {"type": "node", "id": 5665545425, "lat": 27.8047556, "lon": 84.9697071}, {"type": "node", "id": 5665545426, "lat": 27.8045484, "lon": 84.9695777}, {"type": "node", "id": 5665552947, "lat": 27.806668, "lon": 84.9728576}, {"type": "node", "id": 5665552948, "lat": 27.8065602, "lon": 84.9730202}, {"type": "node", "id": 5665552949, "lat": 27.8067184, "lon": 84.9731585}, {"type": "node", "id": 5665552950, "lat": 27.8067831, "lon": 84.973256}, {"type": "node", "id": 5665552951, "lat": 27.8068982, "lon": 84.9733211}, {"type": "node", "id": 5665552952, "lat": 27.807078, "lon": 84.9733211}, {"type": "node", "id": 5665552953, "lat": 27.8072865, "lon": 84.9733536}, {"type": "node", "id": 5665552954, "lat": 27.8073944, "lon": 84.9732072}, {"type": "node", "id": 5665552955, "lat": 27.8073513, "lon": 84.973069}, {"type": "node", "id": 5665552956, "lat": 27.8071589, "lon": 84.9730788}, {"type": "node", "id": 5665552957, "lat": 27.8070276, "lon": 84.9730609}, {"type": "node", "id": 5665552958, "lat": 27.8069701, "lon": 84.9729552}, {"type": "node", "id": 5665552959, "lat": 27.8067471, "lon": 84.9730121}, {"type": "node", "id": 5665552971, "lat": 27.805907, "lon": 84.9746407}, {"type": "node", "id": 5665552972, "lat": 27.805943, "lon": 84.9747789}, {"type": "node", "id": 5665552973, "lat": 27.8057811, "lon": 84.9748968}, {"type": "node", "id": 5665552974, "lat": 27.8057739, "lon": 84.9747302}, {"type": "node", "id": 5665552975, "lat": 27.8045284, "lon": 84.9740554}, {"type": "node", "id": 5665552976, "lat": 27.804621, "lon": 84.9741815}, {"type": "node", "id": 5665552977, "lat": 27.8046257, "lon": 84.9743934}, {"type": "node", "id": 5665552978, "lat": 27.8044976, "lon": 84.9744738}, {"type": "node", "id": 5665552979, "lat": 27.8044169, "lon": 84.9745811}, {"type": "node", "id": 5665552980, "lat": 27.8044312, "lon": 84.9746482}, {"type": "node", "id": 5665552981, "lat": 27.8043386, "lon": 84.9746965}, {"type": "node", "id": 5665552982, "lat": 27.8040183, "lon": 84.9749861}, {"type": "node", "id": 5665552983, "lat": 27.8041726, "lon": 84.9751498}, {"type": "node", "id": 5665552984, "lat": 27.8043291, "lon": 84.97508}, {"type": "node", "id": 5665552985, "lat": 27.80436, "lon": 84.9751685}, {"type": "node", "id": 5665552986, "lat": 27.8042524, "lon": 84.9752654}, {"type": "node", "id": 5665552987, "lat": 27.8042775, "lon": 84.9752898}, {"type": "node", "id": 5665552988, "lat": 27.8043818, "lon": 84.975243}, {"type": "node", "id": 5665552989, "lat": 27.8044304, "lon": 84.9753203}, {"type": "node", "id": 5665552990, "lat": 27.804425, "lon": 84.9754971}, {"type": "node", "id": 5665552991, "lat": 27.8043407, "lon": 84.9755698}, {"type": "node", "id": 5665552992, "lat": 27.8042793, "lon": 84.9755398}, {"type": "node", "id": 5665552993, "lat": 27.8042614, "lon": 84.9754727}, {"type": "node", "id": 5665552994, "lat": 27.8042506, "lon": 84.9753589}, {"type": "node", "id": 5665552995, "lat": 27.8041643, "lon": 84.9753975}, {"type": "node", "id": 5665552996, "lat": 27.8040959, "lon": 84.9754524}, {"type": "node", "id": 5665552997, "lat": 27.8040444, "lon": 84.9755893}, {"type": "node", "id": 5665552998, "lat": 27.8040096, "lon": 84.9756902}, {"type": "node", "id": 5665552999, "lat": 27.8038658, "lon": 84.9757532}, {"type": "node", "id": 5665553000, "lat": 27.8038136, "lon": 84.9757004}, {"type": "node", "id": 5665553001, "lat": 27.8036958, "lon": 84.9758096}, {"type": "node", "id": 5665553002, "lat": 27.8035942, "lon": 84.9758247}, {"type": "node", "id": 5665553003, "lat": 27.8036185, "lon": 84.9757263}, {"type": "node", "id": 5665553004, "lat": 27.8037091, "lon": 84.9756847}, {"type": "node", "id": 5665553005, "lat": 27.8036293, "lon": 84.9755982}, {"type": "node", "id": 5665553006, "lat": 27.8037282, "lon": 84.9755169}, {"type": "node", "id": 5665553007, "lat": 27.8036581, "lon": 84.9753604}, {"type": "node", "id": 5665553008, "lat": 27.8038073, "lon": 84.975214}, {"type": "node", "id": 5665553009, "lat": 27.8037714, "lon": 84.9754234}, {"type": "node", "id": 5665553010, "lat": 27.8038792, "lon": 84.9755942}, {"type": "node", "id": 5665553011, "lat": 27.8040537, "lon": 84.9753888}, {"type": "node", "id": 5665553012, "lat": 27.8040824, "lon": 84.9753319}, {"type": "node", "id": 5665553013, "lat": 27.8039404, "lon": 84.9752039}, {"type": "node", "id": 5665553014, "lat": 27.8039476, "lon": 84.9751429}, {"type": "node", "id": 5665553015, "lat": 27.8039008, "lon": 84.975153}, {"type": "node", "id": 5665553016, "lat": 27.8038541, "lon": 84.9750291}, {"type": "node", "id": 5665553017, "lat": 27.8039871, "lon": 84.974962}, {"type": "node", "id": 5665553018, "lat": 27.8043045, "lon": 84.9746558}, {"type": "node", "id": 5665553019, "lat": 27.804276, "lon": 84.9745539}, {"type": "node", "id": 5665553020, "lat": 27.8044018, "lon": 84.9744319}, {"type": "node", "id": 5665556821, "lat": 27.8043007, "lon": 84.9744524}, {"type": "node", "id": 5665556822, "lat": 27.8043328, "lon": 84.9743612}, {"type": "node", "id": 5665556823, "lat": 27.8043861, "lon": 84.9742915}, {"type": "node", "id": 5665556824, "lat": 27.8043802, "lon": 84.9742124}, {"type": "node", "id": 5665556825, "lat": 27.8044573, "lon": 84.9741399}, {"type": "node", "id": 5665567751, "lat": 27.8032679, "lon": 84.9767592}, {"type": "node", "id": 5665567752, "lat": 27.8031851, "lon": 84.9767624}, {"type": "node", "id": 5665567753, "lat": 27.8031632, "lon": 84.9769005}, {"type": "node", "id": 5665567754, "lat": 27.803254, "lon": 84.9770668}, {"type": "node", "id": 5665567755, "lat": 27.8032446, "lon": 84.9773216}, {"type": "node", "id": 5665567756, "lat": 27.8032634, "lon": 84.9774809}, {"type": "node", "id": 5665567757, "lat": 27.8032446, "lon": 84.9776402}, {"type": "node", "id": 5665567758, "lat": 27.8030661, "lon": 84.9778065}, {"type": "node", "id": 5665567759, "lat": 27.8030411, "lon": 84.9779835}, {"type": "node", "id": 5665567760, "lat": 27.8031319, "lon": 84.9779587}, {"type": "node", "id": 5665567761, "lat": 27.8031287, "lon": 84.9777959}, {"type": "node", "id": 5665567762, "lat": 27.8032477, "lon": 84.9776968}, {"type": "node", "id": 5665567763, "lat": 27.8034011, "lon": 84.9776685}, {"type": "node", "id": 5665567764, "lat": 27.8033949, "lon": 84.9773853}, {"type": "node", "id": 5665567765, "lat": 27.8033604, "lon": 84.9773145}, {"type": "node", "id": 5665567766, "lat": 27.8035201, "lon": 84.9773145}, {"type": "node", "id": 5665567767, "lat": 27.8036328, "lon": 84.9771234}, {"type": "node", "id": 5665567768, "lat": 27.803495, "lon": 84.977081}, {"type": "node", "id": 5665567769, "lat": 27.8034293, "lon": 84.9772579}, {"type": "node", "id": 5665567770, "lat": 27.8033792, "lon": 84.9772615}, {"type": "node", "id": 5665567771, "lat": 27.8034074, "lon": 84.9770385}, {"type": "node", "id": 5665567772, "lat": 27.8032947, "lon": 84.9770279}, {"type": "node", "id": 5665567773, "lat": 27.8032415, "lon": 84.9769465}, {"type": "node", "id": 5665567778, "lat": 27.8033997, "lon": 84.981216}, {"type": "node", "id": 5665567779, "lat": 27.8034269, "lon": 84.9813392}, {"type": "node", "id": 5665567780, "lat": 27.8033888, "lon": 84.9814655}, {"type": "node", "id": 5665567781, "lat": 27.8032879, "lon": 84.9814347}, {"type": "node", "id": 5665567782, "lat": 27.8033043, "lon": 84.9812991}, {"type": "node", "id": 5665567783, "lat": 27.8033125, "lon": 84.9811944}, {"type": "node", "id": 5665567798, "lat": 27.8071363, "lon": 84.9894264}, {"type": "node", "id": 5665567799, "lat": 27.8070069, "lon": 84.9895361}, {"type": "node", "id": 5665567800, "lat": 27.807219, "lon": 84.9898004}, {"type": "node", "id": 5665567801, "lat": 27.8073988, "lon": 84.9897272}, {"type": "node", "id": 5665567802, "lat": 27.807219, "lon": 84.9895036}, {"type": "node", "id": 5665567808, "lat": 27.8057325, "lon": 84.9918425}, {"type": "node", "id": 5665567809, "lat": 27.8054847, "lon": 84.9919378}, {"type": "node", "id": 5665567810, "lat": 27.8055662, "lon": 84.9920723}, {"type": "node", "id": 5665567811, "lat": 27.8058072, "lon": 84.9919626}, {"type": "node", "id": 5665567812, "lat": 27.8058354, "lon": 84.9927235}, {"type": "node", "id": 5665567813, "lat": 27.8059707, "lon": 84.9928108}, {"type": "node", "id": 5665567814, "lat": 27.8059919, "lon": 84.9929854}, {"type": "node", "id": 5665567815, "lat": 27.8062172, "lon": 84.9930242}, {"type": "node", "id": 5665567816, "lat": 27.8063384, "lon": 84.9927815}, {"type": "node", "id": 5665567817, "lat": 27.8061756, "lon": 84.9926612}, {"type": "node", "id": 5665567818, "lat": 27.8061475, "lon": 84.9927496}, {"type": "node", "id": 5665567819, "lat": 27.8061631, "lon": 84.9923886}, {"type": "node", "id": 5665567820, "lat": 27.8060942, "lon": 84.992332}, {"type": "node", "id": 5665567921, "lat": 27.8060817, "lon": 84.99224}, {"type": "node", "id": 5665567922, "lat": 27.8057906, "lon": 84.9918825}, {"type": "node", "id": 5665577443, "lat": 27.8041744, "lon": 84.9990806}, {"type": "node", "id": 5665577444, "lat": 27.8043075, "lon": 84.9992189}, {"type": "node", "id": 5665577445, "lat": 27.8041924, "lon": 84.9994465}, {"type": "node", "id": 5665577446, "lat": 27.804027, "lon": 84.9993205}, {"type": "node", "id": 5665577447, "lat": 27.804027, "lon": 84.999227}, {"type": "node", "id": 5665577469, "lat": 27.803919, "lon": 85.0026279}, {"type": "node", "id": 5665577470, "lat": 27.8037868, "lon": 85.0026652}, {"type": "node", "id": 5665577471, "lat": 27.8037971, "lon": 85.0028147}, {"type": "node", "id": 5665577472, "lat": 27.8039541, "lon": 85.0028053}, {"type": "node", "id": 5665577473, "lat": 27.8040759, "lon": 85.002782}, {"type": "node", "id": 5665577474, "lat": 27.8040738, "lon": 85.0026858}, {"type": "node", "id": 5665577475, "lat": 27.8043049, "lon": 85.0027783}, {"type": "node", "id": 5665577476, "lat": 27.8043637, "lon": 85.0029337}, {"type": "node", "id": 5665577477, "lat": 27.8046685, "lon": 85.0027527}, {"type": "node", "id": 5665577478, "lat": 27.8050379, "lon": 85.0027173}, {"type": "node", "id": 5665577479, "lat": 27.805135, "lon": 85.0031562}, {"type": "node", "id": 5665577480, "lat": 27.8052383, "lon": 85.0034464}, {"type": "node", "id": 5665577481, "lat": 27.8053568, "lon": 85.0036256}, {"type": "node", "id": 5665577482, "lat": 27.8054105, "lon": 85.0039946}, {"type": "node", "id": 5665577483, "lat": 27.805774, "lon": 85.0037471}, {"type": "node", "id": 5665577484, "lat": 27.8058608, "lon": 85.003635}, {"type": "node", "id": 5665577485, "lat": 27.8059723, "lon": 85.0037517}, {"type": "node", "id": 5665577486, "lat": 27.8061747, "lon": 85.0036583}, {"type": "node", "id": 5665577487, "lat": 27.8062119, "lon": 85.0038218}, {"type": "node", "id": 5665577488, "lat": 27.8061169, "lon": 85.0039199}, {"type": "node", "id": 5665577489, "lat": 27.8061953, "lon": 85.0040693}, {"type": "node", "id": 5665577490, "lat": 27.8063358, "lon": 85.0044382}, {"type": "node", "id": 5665577491, "lat": 27.8064645, "lon": 85.0045215}, {"type": "node", "id": 5665577492, "lat": 27.8067369, "lon": 85.0042808}, {"type": "node", "id": 5665577493, "lat": 27.8067043, "lon": 85.0041703}, {"type": "node", "id": 5665577494, "lat": 27.8066008, "lon": 85.0041025}, {"type": "node", "id": 5665577495, "lat": 27.8065899, "lon": 85.0043613}, {"type": "node", "id": 5665577496, "lat": 27.806499, "lon": 85.0044232}, {"type": "node", "id": 5665577497, "lat": 27.8063936, "lon": 85.0042566}, {"type": "node", "id": 5665577498, "lat": 27.8064481, "lon": 85.0037143}, {"type": "node", "id": 5665577499, "lat": 27.8062301, "lon": 85.0033384}, {"type": "node", "id": 5665577500, "lat": 27.8060862, "lon": 85.0034538}, {"type": "node", "id": 5665577501, "lat": 27.805866, "lon": 85.0034938}, {"type": "node", "id": 5665577502, "lat": 27.8055379, "lon": 85.0030673}, {"type": "node", "id": 5665577503, "lat": 27.8051836, "lon": 85.0028023}, {"type": "node", "id": 5665577504, "lat": 27.8042714, "lon": 85.002666}, {"type": "node", "id": 5665577505, "lat": 27.8040629, "lon": 85.002601}, {"type": "node", "id": 5665577510, "lat": 27.8075014, "lon": 85.0030748}, {"type": "node", "id": 5665577511, "lat": 27.8075264, "lon": 85.0034358}, {"type": "node", "id": 5665577512, "lat": 27.8077268, "lon": 85.0034216}, {"type": "node", "id": 5665577513, "lat": 27.8086346, "lon": 85.0032022}, {"type": "node", "id": 5665577514, "lat": 27.8086346, "lon": 85.0029757}, {"type": "node", "id": 5665577515, "lat": 27.807996, "lon": 85.0029049}, {"type": "node", "id": 5665577516, "lat": 27.8076829, "lon": 85.0028271}, {"type": "node", "id": 5666189544, "lat": 27.7949756, "lon": 84.9863451}, {"type": "node", "id": 5666189545, "lat": 27.7948597, "lon": 84.9864371}, {"type": "node", "id": 5666189546, "lat": 27.7949991, "lon": 84.9866406}, {"type": "node", "id": 5666189547, "lat": 27.7950883, "lon": 84.9866637}, {"type": "node", "id": 5666189548, "lat": 27.7950898, "lon": 84.9864778}, {"type": "node", "id": 5666189549, "lat": 27.7951431, "lon": 84.9864088}, {"type": "node", "id": 5666189550, "lat": 27.7952339, "lon": 84.9863593}, {"type": "node", "id": 5666189551, "lat": 27.7951274, "lon": 84.9862248}, {"type": "node", "id": 5666189552, "lat": 27.7950664, "lon": 84.9862566}, {"type": "node", "id": 5666189553, "lat": 27.7950723, "lon": 84.9873042}, {"type": "node", "id": 5666189554, "lat": 27.7949158, "lon": 84.9873611}, {"type": "node", "id": 5666189555, "lat": 27.7949194, "lon": 84.9874871}, {"type": "node", "id": 5666189556, "lat": 27.7950777, "lon": 84.9874627}, {"type": "node", "id": 5840924300, "lat": 27.7420319, "lon": 85.3126407, "tags": {"name": "\u0936\u093f\u0935\u0928\u0917\u0930 \u091f\u094b\u0932", "name:en": "Shivanagar Tole", "name:ne": "\u0936\u093f\u0935\u0928\u0917\u0930 \u091f\u094b\u0932", "place": "neighbourhood"}}, {"type": "node", "id": 5999458613, "lat": 27.7367174, "lon": 85.302147, "tags": {"name": "\u092c\u093e\u0932\u093e\u091c\u0941 \u092c\u093e\u0907\u092a\u093e\u0938", "name:en": "Balaju Bypass", "name:ne": "\u092c\u093e\u0932\u093e\u091c\u0941 \u092c\u093e\u0907\u092a\u093e\u0938", "place": "suburb"}}, {"type": "node", "id": 6079118011, "lat": 27.7308481, "lon": 85.3379875, "tags": {"name": "\u0932\u093e\u0932\u093f\u0917\u0941\u0930\u093e\u0901\u0938 \u091a\u094b\u0915", "name:en": "Laligurans Chok", "name:ne": "\u0932\u093e\u0932\u093f\u0917\u0941\u0930\u093e\u0901\u0938 \u091a\u094b\u0915", "place": "neighbourhood"}}, {"type": "node", "id": 6126068402, "lat": 27.7118152, "lon": 85.3368893, "tags": {"name": "\u0915\u093e\u0932\u094b\u092a\u0941\u0932", "name:en": "Kalopul", "name:ne": "\u0915\u093e\u0932\u094b\u092a\u0941\u0932", "place": "locality"}}, {"type": "node", "id": 6135015912, "lat": 27.7295811, "lon": 85.3308546, "tags": {"name": "\u092a\u092c\u093f\u0924\u094d\u0930 \u0935\u0930\u094d\u0915\u0938\u092a \u091a\u094b\u0915 ", "name:en": "Pabitra Workshop Chowk", "name:ne": "\u092a\u092c\u093f\u0924\u094d\u0930 \u0935\u0930\u094d\u0915\u0938\u092a \u091a\u094b\u0915 ", "place": "locality"}}, {"type": "node", "id": 6138287785, "lat": 27.7234503, "lon": 85.2945917, "tags": {"name": "Dhungedhara", "name:ne": "\u0922\u0941\u0919\u094d\u0917\u0947\u0927\u093e\u0930\u093e", "place": "suburb"}}, {"type": "node", "id": 6177978137, "lat": 27.7025252, "lon": 85.3496963, "tags": {"name": "\u092a\u093f\u0919\u094d\u0917\u0932\u0938\u094d\u0925\u093e\u0928", "name:en": "Pingalsthan", "name:ne": "\u092a\u093f\u0919\u094d\u0917\u0932\u0938\u094d\u0925\u093e\u0928", "place": "locality"}}, {"type": "node", "id": 6275508330, "lat": 27.7131212, "lon": 85.3452626}, {"type": "node", "id": 6313765394, "lat": 27.7824086, "lon": 85.3550094, "tags": {"description": "In the countryside area of Buddhanilkantha", "name": "\u0926\u0941\u0932\u093e\u0932 \u091f\u094b\u0932", "name:en": "Dulal Tol", "name:ne": "\u0926\u0941\u0932\u093e\u0932 \u091f\u094b\u0932", "place": "neighbourhood"}}, {"type": "node", "id": 6332660759, "lat": 27.7432876, "lon": 85.3554198, "tags": {"name": "\u092c\u093e\u0932\u0941\u0935\u093e\u0916\u093e\u0928\u0940 \u091a\u094b\u0915", "name:en": "Baluwakhani Chok", "name:ne": "\u092c\u093e\u0932\u0941\u0935\u093e\u0916\u093e\u0928\u0940 \u091a\u094b\u0915", "place": "neighbourhood"}}, {"type": "node", "id": 6334955115, "lat": 27.7353493, "lon": 85.3551735, "tags": {"name": "Aakashedhara", "place": "neighbourhood"}}, {"type": "node", "id": 6335199071, "lat": 27.7337134, "lon": 85.3528489, "tags": {"alt_name": "Bhandari Garment Chowk", "name": "Panchakumari Chok", "place": "neighbourhood"}}, {"type": "node", "id": 6336976281, "lat": 27.731109, "lon": 85.3514756, "tags": {"name": "Shivapuri Chok", "place": "neighbourhood"}}, {"type": "node", "id": 6336980230, "lat": 27.7302935, "lon": 85.3514233, "tags": {"name": "Bibek Chok", "place": "neighbourhood"}}, {"type": "node", "id": 6337088242, "lat": 27.7269292, "lon": 85.3505114, "tags": {"name": "\u0938\u093e\u0924 \u0924\u0932\u094d\u0932\u0947 \u091a\u094b\u0915", "name:en": "Sat Talle Chok", "name:ne": "\u0938\u093e\u0924 \u0924\u0932\u094d\u0932\u0947 \u091a\u094b\u0915", "place": "neighbourhood"}}, {"type": "node", "id": 6413913541, "lat": 27.7194096, "lon": 85.315162, "tags": {"name": "\u0932\u0907\u0928\u091a\u094c\u0930", "name:en": "Lainchaur", "name:ne": "\u0932\u0907\u0928\u091a\u094c\u0930", "place": "suburb"}}, {"type": "node", "id": 6434459652, "lat": 27.7243106, "lon": 85.3607706}, {"type": "node", "id": 6434459653, "lat": 27.724122, "lon": 85.360667}, {"type": "node", "id": 6646454833, "lat": 27.7531425, "lon": 85.3099203, "tags": {"name": "\u0924\u093e\u0930\u0915\u0947\u0936\u094d\u0935\u0930", "name:bn": "\u09a4\u09be\u09b0\u0995\u09c7\u09b6\u09cd\u09ac\u09b0", "name:en": "Tarakeshwar", "name:ne": "\u0924\u093e\u0930\u0915\u0947\u0936\u094d\u0935\u0930", "place": "town", "wikidata": "Q20809830"}}, {"type": "node", "id": 6994682600, "lat": 27.7503567, "lon": 85.3179507, "tags": {"name": "\u092c\u093e\u0932\u0941\u0935\u093e\u092a\u093e\u091f\u0940 \u091a\u094b\u0915", "name:en": "Baluwapati Chowk", "name:ne": "\u092c\u093e\u0932\u0941\u0935\u093e\u092a\u093e\u091f\u0940 \u091a\u094b\u0915", "place": "neighbourhood"}}, {"type": "node", "id": 7040730499, "lat": 27.7062176, "lon": 85.345575}, {"type": "node", "id": 7040730500, "lat": 27.7078249, "lon": 85.3430604}, {"type": "node", "id": 7040730501, "lat": 27.7122953, "lon": 85.3472037}, {"type": "node", "id": 7040730502, "lat": 27.7116684, "lon": 85.3474612}, {"type": "node", "id": 7040730503, "lat": 27.7107821, "lon": 85.3494559}, {"type": "node", "id": 7041212852, "lat": 27.7104132, "lon": 85.344012}, {"type": "node", "id": 7041212853, "lat": 27.7089644, "lon": 85.3435808}, {"type": "node", "id": 7041212854, "lat": 27.7066254, "lon": 85.3450531}, {"type": "node", "id": 7041212855, "lat": 27.7058358, "lon": 85.3462976}, {"type": "node", "id": 7041212856, "lat": 27.7057542, "lon": 85.3470247}, {"type": "node", "id": 7345929841, "lat": 27.7270523, "lon": 85.3685742, "tags": {"name": "\u0924\u093f\u0928\u094d\u091a\u0941\u0932\u0940 \u091a\u094c\u0915", "name:en": "Tinchuli Chowk", "name:ne": "\u0924\u093f\u0928\u094d\u091a\u0941\u0932\u0940 \u091a\u094c\u0915", "place": "locality"}}, {"type": "node", "id": 7500690606, "lat": 27.7065711, "lon": 85.3490943}, {"type": "node", "id": 8210155477, "lat": 27.7357361, "lon": 85.3658549, "tags": {"name": "\u092b\u093e\u0932\u094d\u0915\u093e \u091a\u094c\u0915", "name:en": "Falka Chowk", "name:ne": "\u092b\u093e\u0932\u094d\u0915\u093e \u091a\u094c\u0915", "place": "locality"}}, {"type": "node", "id": 8273340378, "lat": 28.0437906, "lon": 85.0966059}, {"type": "node", "id": 8273340388, "lat": 28.0446359, "lon": 85.0947313}, {"type": "node", "id": 8282803615, "lat": 27.8984345, "lon": 85.2814426}, {"type": "node", "id": 8283622421, "lat": 27.7656467, "lon": 85.1367353}, {"type": "node", "id": 8283622422, "lat": 27.7651121, "lon": 85.136223}, {"type": "node", "id": 8283622423, "lat": 27.7652895, "lon": 85.1362029}, {"type": "node", "id": 8283622424, "lat": 27.7655067, "lon": 85.136125}, {"type": "node", "id": 8286317234, "lat": 27.8571072, "lon": 85.0468907}, {"type": "node", "id": 8494058961, "lat": 27.7097534, "lon": 85.3490328}, {"type": "node", "id": 8553454145, "lat": 27.7088302, "lon": 85.3486902}, {"type": "node", "id": 8675720583, "lat": 28.1734558, "lon": 85.116157, "tags": {"name": "Lawadun", "place": "village"}}, {"type": "node", "id": 8952787381, "lat": 27.8385013, "lon": 85.2014435, "tags": {"name": "\u0915\u0947\u0909\u0930\u0947\u0928\u0940", "name:en": "Keureni", "name:ne": "\u0915\u0947\u0909\u0930\u0947\u0928\u0940", "place": "village"}}, {"type": "node", "id": 9409626772, "lat": 27.715403, "lon": 85.3126681, "tags": {"alt_name": "B\u0101l\u0101ju", "name": "\u092d\u0917\u0935\u093e\u0928 \u092c\u0939\u093e\u0932", "name:en": "Bhagwan Bahal", "name:ne": "\u092d\u0917\u0935\u093e\u0928 \u092c\u0939\u093e\u0932", "place": "locality", "source:alt_name": "GNS"}}, {"type": "node", "id": 9529645931, "lat": 27.7295848, "lon": 85.3308702, "tags": {"name": "\u092a\u092c\u093f\u0924\u094d\u0930 \u0935\u0930\u094d\u0915\u0938\u092a ", "name:en": "Pabitra Workshop", "name:ne": "\u092a\u092c\u093f\u0924\u094d\u0930 \u0935\u0930\u094d\u0915\u0938\u092a ", "place": "locality"}}, {"type": "node", "id": 9963623204, "lat": 27.7814361, "lon": 85.2492607, "tags": {"name": "\u0938\u093f\u0938\u0921\u094b\u0932", "name:en": "Sisdole", "name:ne": "\u0938\u093f\u0938\u0921\u094b\u0932", "place": "village"}}, {"type": "node", "id": 9963623205, "lat": 27.7778884, "lon": 85.2292111, "tags": {"name": "Banchare Danda", "place": "village"}}, {"type": "node", "id": 9987524057, "lat": 27.7748436, "lon": 85.3610699, "tags": {"name": "\u0926\u0947\u0909\u092c\u093e \u091a\u094b\u0915 \u0938\u094d\u091f\u092a", "name:en": "Deuba Chowk stop", "name:ne": "\u0926\u0947\u0909\u092c\u093e \u091a\u094b\u0915 \u0938\u094d\u091f\u092a", "place": "locality"}}, {"type": "node", "id": 9999371550, "lat": 27.7748638, "lon": 85.364546, "tags": {"name": "\u092b\u0942\u0932\u092c\u093e\u0930\u0940 \u091f\u094b\u0932", "name:en": "Phoolbari Tole", "name:ne": "\u092b\u0942\u0932\u092c\u093e\u0930\u0940 \u091f\u094b\u0932", "place": "locality"}}, {"type": "node", "id": 9999371551, "lat": 27.7734624, "lon": 85.3650999, "tags": {"name": "\u092c\u093f\u0938\u094d\u091f \u091f\u094b\u0932", "name:en": "Bista Tole", "name:ne": "\u092c\u093f\u0938\u094d\u091f \u091f\u094b\u0932", "place": "locality"}}, {"type": "node", "id": 9999414697, "lat": 27.7608673, "lon": 85.3519517, "tags": {"name": "\u0917\u0923\u0947\u0936 \u0935\u093f\u0926\u094d\u092f\u093e\u0932\u092f \u091a\u094b\u0915", "name:en": "Ganesh School Chowk", "name:ne": "\u0917\u0923\u0947\u0936 \u0935\u093f\u0926\u094d\u092f\u093e\u0932\u092f \u091a\u094b\u0915", "place": "locality"}}, {"type": "node", "id": 9999414699, "lat": 27.7675844, "lon": 85.3556525, "tags": {"name": "\u091a\u092a\u0932\u0940 \u091a\u094b\u0915", "name:en": "Chapali Chowk", "name:ne": "\u091a\u092a\u0932\u0940 \u091a\u094b\u0915", "place": "locality"}}, {"type": "node", "id": 10007211926, "lat": 27.7394371, "lon": 85.317413, "tags": {"address": "Tokha-11", "name": "\u0928\u092f\u093e\u0901 \u0915\u094b\u0932\u094b\u0928\u0940 \u092c\u0938\u094d\u0924\u0940", "name:en": "Naya Colony Basti", "name:ne": "\u0928\u092f\u093e\u0901 \u0915\u094b\u0932\u094b\u0928\u0940 \u092c\u0938\u094d\u0924\u0940", "place": "locality"}}, {"type": "node", "id": 10007223713, "lat": 27.7395738, "lon": 85.3173708, "tags": {"address": "Tokha-11, Samakhusi", "name": "\u0928\u0935 \u092e\u093f\u0932\u0928 \u092c\u0938\u094d\u0924\u0940", "name:en": "Nav Milan Bastii", "name:ne": "\u0928\u0935 \u092e\u093f\u0932\u0928 \u092c\u0938\u094d\u0924\u0940", "place": "neighbourhood"}}, {"type": "node", "id": 10009810848, "lat": 27.7475577, "lon": 85.3244713, "tags": {"name": "\u0936\u094d\u0930\u0940 \u092c\u093f\u0928\u093e\u092f\u0915 \u091f\u094b\u0932", "name:en": "Shree Binayak Tole", "name:ne": "\u0936\u094d\u0930\u0940 \u092c\u093f\u0928\u093e\u092f\u0915 \u091f\u094b\u0932", "place": "hamlet"}}, {"type": "node", "id": 10023317275, "lat": 27.7842576, "lon": 85.3266229, "tags": {"name": "Saraswoti Krishi Farm", "place": "farm"}}, {"type": "node", "id": 10025780109, "lat": 27.711551, "lon": 85.3478902}, {"type": "node", "id": 10162040560, "lat": 27.8127782, "lon": 85.215316, "tags": {"name": "\u0938\u093f\u0938\u094d\u0928\u0947\u0930\u0940", "name:en": "Sisneri", "name:ne": "\u0938\u093f\u0938\u094d\u0928\u0947\u0930\u0940", "place": "village"}}, {"type": "node", "id": 10162298906, "lat": 27.8093726, "lon": 85.2094594, "tags": {"name": "Jagari", "place": "village"}}, {"type": "node", "id": 10169139602, "lat": 27.818295, "lon": 85.2260274, "tags": {"name": "Ningale", "place": "village"}}, {"type": "node", "id": 10207187270, "lat": 28.1104105, "lon": 85.3047153, "tags": {"name": "National Rainbow Trout Research Station, Dhunche", "place": "hamlet"}}, {"type": "node", "id": 10207223745, "lat": 28.1123859, "lon": 85.302123, "tags": {"name": "Pasture and Fodder Research Station, Dhunche", "place": "hamlet"}}, {"type": "node", "id": 10228661417, "lat": 27.7078547, "lon": 85.3854248, "tags": {"name:en": "Gaurinath Chowk", "place": "locality"}}, {"type": "node", "id": 10268953803, "lat": 27.7251963, "lon": 85.3762445, "tags": {"name": "\u092c\u0947\u0928\u094d\u0938\u093f\u0917\u093e\u0909", "name:en": "Bensigaun", "name:ne": "\u092c\u0947\u0928\u094d\u0938\u093f\u0917\u093e\u0909", "place": "neighbourhood"}}, {"type": "node", "id": 10268980272, "lat": 27.7171566, "lon": 85.3699779, "tags": {"name": "\u0928\u093e\u092f\u093e\u092c\u0938\u094d\u0924\u0940", "name:en": "Nayabasti", "name:ne": "\u0928\u093e\u092f\u093e\u092c\u0938\u094d\u0924\u0940", "place": "neighbourhood"}}, {"type": "node", "id": 10315965426, "lat": 28.1127948, "lon": 85.2960583, "tags": {"name": "Dhunche", "name:en": "Dhunche", "name:ja": "\u30c9\u30a5\u30f3\u30c1\u30a7", "place": "town"}}, {"type": "node", "id": 10547764887, "lat": 27.8210823, "lon": 85.2245629, "tags": {"name": "Nigale", "place": "hamlet"}}, {"type": "node", "id": 10554354307, "lat": 27.8184041, "lon": 85.2440196, "tags": {"name": "Organic Kiwi Farm, Kakani", "place": "farm"}}, {"type": "node", "id": 10555670530, "lat": 27.8107771, "lon": 85.2388242, "tags": {"name": "Strawberry Farm", "place": "farm"}}, {"type": "node", "id": 10555692906, "lat": 27.810687, "lon": 85.2432713, "tags": {"name": "Hile Bhitta", "place": "hamlet"}}, {"type": "node", "id": 10559801235, "lat": 27.8110049, "lon": 85.2673388, "tags": {"name": "\u092e\u0915\u0948 \u092b\u093e\u0930\u094d\u092e", "place": "hamlet"}}, {"type": "node", "id": 10564074389, "lat": 27.8079942, "lon": 85.2493438, "tags": {"name": "Strawberry farm", "place": "farm"}}, {"type": "node", "id": 10603458426, "lat": 28.0235604, "lon": 85.181726, "tags": {"name": "Salim Bhitta (\u0938\u093e\u0932\u093f\u092e \u092d\u093f\u0924\u094d\u0924\u093e)", "place": "village"}}, {"type": "node", "id": 10603466952, "lat": 28.0142354, "lon": 85.2030983, "tags": {"name": "Dhunge ( \u0922\u0941\u0919\u094d\u0917\u0947)", "place": "village"}}, {"type": "node", "id": 10603476241, "lat": 28.0135003, "lon": 85.2525951, "tags": {"name": "Ghormu (\u0918\u094b\u0930\u094d\u092e\u0941)", "place": "village"}}, {"type": "node", "id": 10603486359, "lat": 28.0115116, "lon": 85.2736249, "tags": {"name": "Parchyang (\u092a\u093e\u0930\u091a\u094d\u092f\u093e\u0919\u094d\u0917)", "place": "village"}}, {"type": "node", "id": 10603537479, "lat": 27.984691, "lon": 85.1825623, "tags": {"name": "Naubisephat (\u0928\u094c\u0935\u093f\u0938\u0947 \u092b\u093e\u0901\u091f)", "place": "village"}}, {"type": "node", "id": 10603584476, "lat": 28.0664188, "lon": 85.2001662, "tags": {"name": "Dharna bhadaure (\u0927\u0930\u094d\u0928\u093e\u092d\u0926\u094c\u0930\u0947)", "place": "village"}}, {"type": "node", "id": 10603590046, "lat": 28.0714356, "lon": 85.1985693, "tags": {"name": "Siruchet (\u0938\u093f\u0930\u0941\u091a\u0947\u0924)", "name:ne": "\u0938\u093f\u0930\u0941\u091a\u0947\u0924", "place": "village"}}, {"type": "node", "id": 10603591893, "lat": 27.9995788, "lon": 85.237744, "tags": {"name": "Khalchet (\u0916\u093e\u0932\u091a\u0947\u0924)", "place": "village"}}, {"type": "node", "id": 10603591972, "lat": 28.0042411, "lon": 85.2481629, "tags": {"name": "Sarsyu (\u0938\u0930\u0938\u093f\u0909)", "place": "village"}}, {"type": "node", "id": 10603738772, "lat": 27.97573, "lon": 85.275039, "tags": {"name": "Saramthali (\u0938\u0930\u092e\u0925\u0932\u0940)", "place": "village"}}, {"type": "node", "id": 10877471278, "lat": 27.7641887, "lon": 85.3122121, "tags": {"name": "Jayantipur Ekata Tol", "place": "locality"}}, {"type": "node", "id": 10877471279, "lat": 27.7879529, "lon": 85.3191818, "tags": {"name": "Bihani Chwok", "place": "locality"}}, {"type": "node", "id": 10885725496, "lat": 27.8324302, "lon": 85.2359676, "tags": {"name": "Chhahare", "name:en": "Chhahare", "name:ne": "\u091b\u0939\u093e\u0930\u0947", "place": "hamlet"}}, {"type": "node", "id": 10923355998, "lat": 28.002583, "lon": 85.2636698, "tags": {"name": "Ekpakhe", "place": "village"}}, {"type": "node", "id": 10923390428, "lat": 27.9730206, "lon": 85.2633706, "tags": {"name": "Danuswara", "place": "village"}}, {"type": "node", "id": 10923399838, "lat": 27.9989545, "lon": 85.2699402, "tags": {"name": "Manduchet", "place": "village"}}, {"type": "node", "id": 10923401248, "lat": 28.0268547, "lon": 85.2869612, "tags": {"name": "Chyupar Khola", "place": "village"}}, {"type": "node", "id": 10923402625, "lat": 27.9994886, "lon": 85.2604973, "tags": {"name": "Kapthali", "place": "village"}}, {"type": "node", "id": 10923406165, "lat": 28.0357923, "lon": 85.30838, "tags": {"name": "Sangyual", "place": "village"}}, {"type": "node", "id": 10923406688, "lat": 28.0076821, "lon": 85.3037755, "tags": {"name": "Thangsen Yubra", "place": "village"}}, {"type": "node", "id": 10923410731, "lat": 28.005871, "lon": 85.2871624, "tags": {"name": "Ghichet", "place": "village"}}, {"type": "node", "id": 10923411849, "lat": 27.9847648, "lon": 85.2369942, "tags": {"name": "Badare", "place": "village"}}, {"type": "node", "id": 10923413444, "lat": 28.0092053, "lon": 85.2537777, "tags": {"name": "Komu", "place": "village"}}, {"type": "node", "id": 10923421509, "lat": 28.0030286, "lon": 85.2841561, "tags": {"name": "Ghichet Ghattelung", "place": "village"}}, {"type": "node", "id": 10928008770, "lat": 27.7411428, "lon": 85.2287337, "tags": {"name": "Thulo khola", "place": "locality"}}, {"type": "node", "id": 10956873574, "lat": 27.7380222, "lon": 85.3252161, "tags": {"name": "\u092c\u0938\u0941\u0928\u094d\u0927\u0930\u093e \u091a\u094c\u0915\u0940", "name:en": "Basundhara Chauki", "name:ne": "\u092c\u0938\u0941\u0928\u094d\u0927\u0930\u093e \u091a\u094c\u0915\u0940", "place": "suburb"}}, {"type": "node", "id": 10956894315, "lat": 27.7214755, "lon": 85.3456378, "tags": {"name": "\u0917\u094b\u092a\u0940\u0915\u0943\u0937\u094d\u0923", "name:en": "Gopi Krishna", "name:ne": "\u0917\u094b\u092a\u0940\u0915\u0943\u0937\u094d\u0923", "place": "locality"}}, {"type": "node", "id": 11013450534, "lat": 27.7107035, "lon": 85.3738174, "tags": {"name:en": "Bhirbhadra Chowk", "place": "locality"}}, {"type": "node", "id": 11013450535, "lat": 27.7067672, "lon": 85.3772221, "tags": {"name:en": "Aadarsh Tole", "place": "locality"}}, {"type": "node", "id": 11013450536, "lat": 27.706997, "lon": 85.3788295, "tags": {"name:en": "Tejbinayak Chowk", "place": "locality"}}, {"type": "node", "id": 11013450537, "lat": 27.7068177, "lon": 85.3801498, "tags": {"name:en": "Pepalboat Chowk", "place": "locality"}}, {"type": "node", "id": 11013450538, "lat": 27.7075883, "lon": 85.3831217, "tags": {"name:en": "Khurshani Chowk", "place": "locality"}}, {"type": "node", "id": 11021710184, "lat": 27.790108, "lon": 85.3413194, "tags": {"name": "\u0921\u093e\u0901\u0921\u093e \u0917\u093e\u0909\u0901", "name:en": "Dandagaon", "name:ne": "\u0921\u093e\u0901\u0921\u093e \u0917\u093e\u0909\u0901", "place": "village"}}, {"type": "node", "id": 11029862945, "lat": 27.7909142, "lon": 85.3699102, "tags": {"name": "\u092e\u0941\u0939\u093e\u0928 \u092a\u094b\u0916\u0930\u0940", "name:en": "Muhan Pokhari", "name:ne": "\u092e\u0941\u0939\u093e\u0928 \u092a\u094b\u0916\u0930\u0940", "place": "hamlet"}}, {"type": "node", "id": 11247899251, "lat": 27.7770784, "lon": 85.278319, "tags": {"name": "Tinpiple", "place": "village", "source": "local knowledge"}}, {"type": "node", "id": 11292264842, "lat": 27.9186115, "lon": 85.3093827}, {"type": "node", "id": 11292264843, "lat": 27.918628, "lon": 85.3097189}, {"type": "node", "id": 11292264844, "lat": 27.918364, "lon": 85.309789}, {"type": "node", "id": 11292264845, "lat": 27.9181411, "lon": 85.3096489}, {"type": "node", "id": 11292264846, "lat": 27.9179967, "lon": 85.3096489}, {"type": "node", "id": 11292264847, "lat": 27.9178151, "lon": 85.3091539}, {"type": "node", "id": 11292264848, "lat": 27.9176171, "lon": 85.3092473}, {"type": "node", "id": 11292264849, "lat": 27.917452, "lon": 85.3089717}, {"type": "node", "id": 11292264850, "lat": 27.9173695, "lon": 85.3087289}, {"type": "node", "id": 11292264851, "lat": 27.9173736, "lon": 85.3084394}, {"type": "node", "id": 11292264852, "lat": 27.9176088, "lon": 85.3082993}, {"type": "node", "id": 11292264853, "lat": 27.9177739, "lon": 85.3086308}, {"type": "node", "id": 11292264854, "lat": 27.9179348, "lon": 85.3089998}, {"type": "node", "id": 11292264855, "lat": 27.9182897, "lon": 85.3090558}, {"type": "node", "id": 11292264856, "lat": 27.9184506, "lon": 85.3089157}, {"type": "node", "id": 11292264857, "lat": 27.918529, "lon": 85.3091118}, {"type": "node", "id": 11470833294, "lat": 27.8746357, "lon": 84.9857647, "tags": {"name": "Deurali", "place": "hamlet"}}, {"type": "node", "id": 11470833300, "lat": 27.8644386, "lon": 84.9776833, "tags": {"name": "Paharechhap", "place": "village"}}, {"type": "node", "id": 11470833301, "lat": 27.8618333, "lon": 84.980557, "tags": {"name": "Devithan", "place": "hamlet"}}, {"type": "node", "id": 11470833302, "lat": 27.8596131, "lon": 84.9864209, "tags": {"name": "Gairigau", "place": "hamlet"}}, {"type": "node", "id": 11470833365, "lat": 27.8738902, "lon": 84.9734456, "tags": {"name": "Ramche", "place": "hamlet"}}, {"type": "node", "id": 11470888785, "lat": 27.8838994, "lon": 84.9850943, "tags": {"name": "Jamune", "place": "hamlet"}}, {"type": "node", "id": 11470888962, "lat": 27.9019131, "lon": 84.9838264, "tags": {"name": "Kaphalswari", "place": "hamlet"}}, {"type": "node", "id": 11470888963, "lat": 27.894874, "lon": 84.9860736, "tags": {"alt_name": "Dhuseni", "name": "Dhusani", "place": "village"}}, {"type": "node", "id": 11470888966, "lat": 27.8892039, "lon": 84.9789476, "tags": {"alt_name": "Danda Basaha", "name": "Dadabasa", "place": "hamlet"}}, {"type": "node", "id": 11765507564, "lat": 27.8010451, "lon": 84.980042, "tags": {"name": "\u092e\u0939\u0947\u0936-\u0926\u094b\u092d\u093e\u0928", "name:en": "MaheshDovan", "name:ne": "\u092e\u0939\u0947\u0936-\u0926\u094b\u092d\u093e\u0928", "place": "hamlet"}}, {"type": "node", "id": 11772918255, "lat": 27.8004709, "lon": 84.9899098, "tags": {"name": "\u092c\u0948\u0930\u0947\u0928\u0940", "name:en": "Baireni", "name:ne": "\u092c\u0948\u0930\u0947\u0928\u0940", "place": "hamlet"}}, {"type": "way", "id": 340415956, "nodes": [3476388750, 3476388749, 3476388751, 3478712633, 3476388754, 3476388756, 3476388759, 3476388758, 3476388760, 3476388757, 3476388755, 3476388753, 3476388752, 3476388750], "tags": {"landuse": "residential", "place": "village"}}, {"type": "way", "id": 340415958, "nodes": [3476388746, 3476388742, 3476388744, 8286317234, 3479006215, 3479006218, 3476388743, 3476388745, 3476388747, 3476388748, 3476388746], "tags": {"landuse": "residential", "place": "village"}}, {"type": "way", "id": 340489102, "nodes": [3477235228, 3477235224, 3477235222, 3477235216, 3477235210, 3477235208, 3477235203, 3477235202, 3477235205, 3477235204, 3477235209, 3477235207, 3477235213, 3477235218, 3477235221, 3477235226, 3477235228], "tags": {"name": "Keurintar Village Area", "place": "village"}}, {"type": "way", "id": 340541400, "nodes": [3477788841, 3477788848, 3477788840, 3477788830, 3477788841], "tags": {"name": "Keurintar Village", "place": "village", "source": "Bing"}}, {"type": "way", "id": 341502745, "nodes": [3486797323, 3486797325, 3486797327, 4527737984, 8283622421, 3486797329, 3486797328, 8283622424, 8283622423, 3486797326, 8283622422, 3486797323], "tags": {"landuse": "farmland", "place": "hamlet"}}, {"type": "way", "id": 341502746, "nodes": [3486797330, 3486797332, 3486797335, 3486797339, 3486797336, 3486797338, 3486797342, 3486797341, 3486797340, 3486797337, 3486797334, 3486797333, 3486797331, 3478001840, 3486797330], "tags": {"place": "hamlet"}}, {"type": "way", "id": 341525593, "nodes": [3486948965, 3486948963, 3486948947, 3486948929, 3486948926, 3486948933, 3486948930, 3486948932, 3486948927, 3486948931, 3486948941, 3486948965], "tags": {"place": "hamlet"}}, {"type": "way", "id": 341525963, "nodes": [3486948717, 3486948730, 3486948728, 3486948722, 3486948718, 3486948710, 3486948707, 3486948709, 3486948717], "tags": {"place": "hamlet"}}, {"type": "way", "id": 341525970, "nodes": [3486948732, 3486948735, 3486948736, 3486948738, 3486948739, 3486948742, 3486948748, 3486948747, 3486948737, 3486948732], "tags": {"place": "hamlet"}}, {"type": "way", "id": 341538706, "nodes": [3487034436, 3487034440, 3487034439, 3487034435, 3487034436], "tags": {"place": "hamlet"}}, {"type": "way", "id": 341538712, "nodes": [3487034433, 3487034434, 3487034438, 3487034437, 3487034433], "tags": {"place": "hamlet"}}, {"type": "way", "id": 341538713, "nodes": [3487033781, 3487033782, 3487033785, 3487033784, 3487033781], "tags": {"place": "hamlet"}}, {"type": "way", "id": 341538721, "nodes": [3487033786, 3487033787, 3487033789, 3487033788, 3487033786], "tags": {"place": "hamlet"}}, {"type": "way", "id": 341538728, "nodes": [3487033772, 3487033773, 3487033779, 3487033776, 3487033772], "tags": {"place": "hamlet"}}, {"type": "way", "id": 341538732, "nodes": [3487033774, 3487033780, 3487033783, 3487033778, 3487033774], "tags": {"place": "hamlet"}}, {"type": "way", "id": 341538736, "nodes": [3487033763, 3487033765, 3487033764, 3487033762, 3487033763], "tags": {"place": "hamlet"}}, {"type": "way", "id": 341538738, "nodes": [3487033770, 3487033771, 3487033777, 3487033775, 3487033770], "tags": {"place": "hamlet"}}, {"type": "way", "id": 341538740, "nodes": [3487033758, 3487033759, 3487033761, 3487033760, 3487033758], "tags": {"place": "hamlet"}}, {"type": "way", "id": 341538806, "nodes": [3487033766, 3487033767, 3487033769, 3487033768, 8282803615, 3487033766], "tags": {"place": "hamlet"}}, {"type": "way", "id": 343001074, "nodes": [3499299870, 3499299867, 3499299866, 8273340388, 3499299855, 3499299853, 3499299851, 8273340378, 3499299854, 3499299856, 3499299865, 3499299868, 3499299871, 3499299870], "tags": {"place": "village"}}, {"type": "way", "id": 344177821, "nodes": [3509365500, 3509365501, 3509365502, 3509365503, 3509365504, 3509365505, 3509365506, 3509365507, 3509365508, 3509365509, 3509365510, 3509365511, 3509365512, 3509365500], "tags": {"landuse": "residential", "name": "Gaindanda Village", "place": "village"}}, {"type": "way", "id": 344178226, "nodes": [3509368414, 3509368415, 3509368416, 3509368417, 3509368418, 3509368419, 4457854786, 3509368420, 3509368421, 3509368422, 3509368423, 3509368424, 3509368425, 3509368426, 3509368427, 3509368428, 3509368429, 3509368430, 3509368431, 3509368432, 3509368433, 3509368434, 3509368435, 3509368436, 3509368437, 3509368438, 3509368439, 3509368414], "tags": {"landuse": "residential", "name": "Archale Village", "place": "village"}}, {"type": "way", "id": 448808888, "nodes": [4457843677, 4457843678, 4457843679, 4457843677], "tags": {"name": "Poultry Farm", "place": "farm"}}, {"type": "way", "id": 448813538, "nodes": [4457882752, 4457882761, 4457882753, 4457882754, 4457882755, 4457882756, 4457882757, 4457882758, 4457882759, 4457882760, 4457882742, 4457882743, 4457882744, 4457882748, 4457882749, 4457882750, 4457882751, 4457882745, 4457882746, 4457882747, 4457882752], "tags": {"name": "Keurintar Farm Land", "place": "farm"}}, {"type": "way", "id": 480771319, "nodes": [4737390099, 4737390100, 4737390101, 4737390102, 4737390103, 4737390104, 4737390105, 4737390106, 4737390107, 4737390099], "tags": {"name": "Jay Shree Ram Agro Farm", "place": "farm"}}, {"type": "way", "id": 561725422, "nodes": [5416051271, 6434459652, 5416051270, 5416051269, 6434459653, 5416051268, 5416051271], "tags": {"place": "square", "surface": "paving_stones"}}, {"type": "way", "id": 594026400, "nodes": [5665537364, 5665537365, 5665537366, 5665537367, 5665537368, 5665537369, 5665537370, 5665537371, 5665537372, 5665537373, 5665537374, 5665537375, 5665537376, 5665537364], "tags": {"place": "village"}}, {"type": "way", "id": 594027676, "nodes": [5665543996, 5665543997, 5665543998, 5665543999, 5665544000, 5665543996], "tags": {"place": "village"}}, {"type": "way", "id": 594027680, "nodes": [5665544010, 5665544011, 5665544012, 5665544013, 5665544014, 5665544015, 5665544016, 5665544017, 5665544010], "tags": {"place": "village"}}, {"type": "way", "id": 594027684, "nodes": [5665545422, 5665545423, 5665545424, 5665545425, 5665545426, 5665545422], "tags": {"place": "village"}}, {"type": "way", "id": 594029427, "nodes": [5665552947, 5665552948, 5665552949, 5665552950, 5665552951, 5665552952, 5665552953, 5665552954, 5665552955, 5665552956, 5665552957, 5665552958, 5665552959, 5665552947], "tags": {"place": "village"}}, {"type": "way", "id": 594029431, "nodes": [5665552971, 5665552972, 5665552973, 5665552974, 5665552971], "tags": {"place": "village"}}, {"type": "way", "id": 594029432, "nodes": [5665552975, 5665552976, 5665552977, 5665552978, 5665552979, 5665552980, 5665552981, 5665552982, 5665552983, 5665552984, 5665552985, 5665552986, 5665552987, 5665552988, 5665552989, 5665552990, 5665552991, 5665552992, 5665552993, 5665552994, 5665552995, 5665552996, 5665552997, 5665552998, 5665552999, 5665553000, 5665553001, 5665553002, 5665553003, 5665553004, 5665553005, 5665553006, 5665553007, 5665553008, 5665553009, 5665553010, 5665553011, 5665553012, 5665553013, 5665553014, 5665553015, 5665553016, 5665553017, 5665553018, 5665553019, 5665553020, 5665556821, 5665556822, 5665556823, 5665556824, 5665556825, 5665552975], "tags": {"place": "village"}}, {"type": "way", "id": 594031994, "nodes": [5665567752, 5665567753, 5665567754, 5665567755, 5665567756, 5665567757, 5665567758, 5665567759, 5665567760, 5665567761, 5665567762, 5665567763, 5665567764, 5665567765, 5665567766, 5665567767, 5665567768, 5665567769, 5665567770, 5665567771, 5665567772, 5665567773, 5665567751, 5665567752], "tags": {"place": "village"}}, {"type": "way", "id": 594031996, "nodes": [5665567778, 5665567779, 5665567780, 5665567781, 5665567782, 5665567783, 5665567778], "tags": {"place": "village"}}, {"type": "way", "id": 594031999, "nodes": [5665567798, 5665567799, 5665567800, 5665567801, 5665567802, 5665567798], "tags": {"place": "village"}}, {"type": "way", "id": 594032001, "nodes": [5665567808, 5665567809, 5665567810, 5665567811, 3078005827, 5665567812, 5665567813, 5665567814, 5665567815, 5665567816, 5665567817, 5665567818, 3490648071, 5665567819, 5665567820, 5665567921, 5665567922, 5665567808], "tags": {"place": "village"}}, {"type": "way", "id": 594033467, "nodes": [5665577443, 5665577444, 5665577445, 5665577446, 5665577447, 5665577443], "tags": {"place": "village"}}, {"type": "way", "id": 594033473, "nodes": [5665577469, 5665577470, 5665577471, 5665577472, 5665577473, 5665577474, 5665577475, 5665577476, 3069794042, 5665577477, 5665577478, 5665577479, 5665577480, 5665577481, 5665577482, 5665577483, 5665577484, 5665577485, 5665577486, 5665577487, 5665577488, 5665577489, 5665577490, 5665577491, 5665577492, 5665577493, 5665577494, 5665577495, 5665577496, 5665577497, 3490636152, 3069794101, 3069794114, 5665577498, 3069794286, 5665577499, 5665577500, 5665577501, 3069793322, 5665577502, 3069794288, 5665577503, 3069794040, 3069794267, 5665577504, 5665577505, 5665577469], "tags": {"place": "village"}}, {"type": "way", "id": 594033476, "nodes": [5665577510, 5665577511, 5665577512, 5665577513, 5665577514, 5665577515, 5665577516, 5665577510], "tags": {"place": "village"}}, {"type": "way", "id": 594140922, "nodes": [5666189544, 5666189545, 5666189546, 5666189547, 5666189548, 5666189549, 5666189550, 5666189551, 5666189552, 5666189544], "tags": {"place": "village"}}, {"type": "way", "id": 594140927, "nodes": [5666189553, 5666189554, 5666189555, 5666189556, 5666189553], "tags": {"place": "village"}}, {"type": "way", "id": 753559109, "nodes": [1280126224, 2011801802, 31148056, 1280126239, 1395061448, 7041212856, 7041212855, 7040730499, 7041212854, 31148043, 7040730500, 7041212853, 7041212852, 6275508330, 7040730501, 7040730502, 10025780109, 2115211532, 943251173, 7040730503, 8494058961, 8553454145, 1280126097, 7500690606, 1280126224], "tags": {"name": "Gaushala", "name:ne": "\u0917\u094c\u0936\u093e\u0932\u093e", "place": "locality"}}, {"type": "way", "id": 1218658531, "nodes": [11292264842, 11292264843, 11292264844, 11292264845, 11292264846, 11292264847, 11292264848, 11292264849, 11292264850, 11292264851, 11292264852, 11292264853, 11292264854, 11292264855, 11292264856, 11292264857, 11292264842], "tags": {"name": "Budune Community", "name:ne": "\u092c\u0941\u0926\u0941\u0928\u0947 \u092c\u0938\u094d\u0924\u0940", "place": "neighbourhood"}}]}