{"version": 0.6, "generator": "Overpass API 0.7.62.4 2390de5a", "osm3s": {"timestamp_osm_base": "2025-02-04T06:57:31Z", "copyright": "The data included in this document is from www.openstreetmap.org. The data is made available under ODbL."}, "elements": [{"type": "node", "id": 244083134, "lat": 29.7726546, "lon": 84.0291827, "tags": {"alt_name": "\u4ef2\u5df4", "alt_name:en": "Chung-pa Hsien;Zhongba", "alt_name:vi": "Tr\u1ecdng Ba", "alt_name:zh": "\u4ef2\u5df4", "capital": "6", "gns:ADM1": "14", "gns:DSG": "ADM3", "gns:UFI": "-1939044", "gns:UNI": "10074276", "name": "\u4ef2\u5df4\u53bf \u0f60\u0f56\u0fb2\u0f7c\u0f44\u0f0b\u0f54\u0f0d", "name:bo": "\u0f60\u0f56\u0fb2\u0f7c\u0f44\u0f0b\u0f54\u0f0d", "name:bo-Latn-thl": "drong pa", "name:bo-Latn-wylie": "'brong pa", "name:de": "Zhongba", "name:en": "Drongpa", "name:es": "Zhongba", "name:fr": "Zhongba", "name:ja": "\u30c9\u30f3\u30d1\u770c", "name:ko": "\uc911\ubc14\ud604", "name:ml": "\u0d38\u0d4b\u0d19\u0d4d\u0d2c", "name:ru": "\u0414\u0436\u043e\u043d\u0433\u0431\u0430", "name:vi": "Zhongba", "name:zh": "\u4ef2\u5df4\u53bf", "name:zh-Hans": "\u4ef2\u5df4\u53bf", "name:zh-Hant": "\u4ef2\u5df4\u7e23", "name:zh-Latn-pinyin": "Zh\u00f2ngb\u0101 Xi\u00e0n", "place": "city", "place:CN": "county", "population": "19400", "population:date": "2022", "population:note": "\u4eba\u53e3\u4e3a\u57ce\u533a\u4eba\u53e3", "source:name": "GNS", "wikidata": "Q197827", "wikipedia": "en:Zhongba County"}}, {"type": "node", "id": 1538971185, "lat": 29.7704954, "lon": 84.0300958, "tags": {"alt_name": "\u4ef2\u5df4\u53bf;\u4ef2\u5df4;\u62c9\u8ba9;Zhongba", "alt_name:en": "Larang;Drongpa;Zhongba", "capital": "8", "int_name": "zhong ba", "name": "\u62c9\u8ba9\u4e61", "name:bo": "\u0f63\u0f0b\u0f56\u0fb2\u0f44", "name:bo-Latn-wylie": "la brang", "name:en": "Labrang", "name:ml": "\u0d32\u0d3e\u0d2c\u0d4d\u0d30\u0d3e\u0d19\u0d4d", "name:vi": "Tr\u1ecdng Ba", "name:zh": "\u62c9\u8ba9\u4e61", "name:zh-Latn-pinyin": "L\u0101 r\u00e0ng xi\u0101ng", "official_name": "\u62c9\u8ba9\u4e61", "place": "town", "place:CN": "township", "wikidata": "Q11077096", "wikipedia": "zh:\u62c9\u8ba9\u4e61"}}, {"type": "node", "id": 3134866685, "lat": 29.8681764, "lon": 83.7423531, "tags": {"name": "\u73e0\u73e0\u6751", "place": "village"}}]}