{"version": 0.6, "generator": "Overpass API 0.7.62.4 2390de5a", "osm3s": {"timestamp_osm_base": "2025-02-04T06:55:30Z", "copyright": "The data included in this document is from www.openstreetmap.org. The data is made available under ODbL."}, "elements": [{"type": "node", "id": 2527672209, "lat": 29.3666174, "lon": 84.9528762, "tags": {"alt_name": "\u96c4\u5982\u4e61;Xiongru;Xiongru Xiang", "capital": "8", "name": "\u96c4\u5982\u4e61", "name:bo": "\u0f42\u0f5e\u0f74\u0f44\u0f0b\u0f62\u0f74\u0f0b", "name:en": "Xungru", "name:ru": "\u0428\u0443\u043d\u0433\u0440\u0443", "name:zh": "\u96c4\u5982\u4e61", "place": "town", "place:CN": "township", "source:name": "GNS", "wikidata": "Q14296590", "wikipedia": "zh:\u96c4\u5982\u4e61"}}, {"type": "node", "id": 2730757364, "lat": 29.3462047, "lon": 84.9626835, "tags": {"name": "\u5353\u5df4\u5e03", "name:en": "Zhuobabu", "name:zh": "\u5353\u5df4\u5e03", "place": "village", "source:name": "GNS"}}, {"type": "node", "id": 8016982143, "lat": 29.3836, "lon": 84.9649, "tags": {"name": "\u66f2\u590f", "name:en": "Quxia", "name:zh": "\u66f2\u590f", "place": "hamlet", "source:name": "GNS"}}]}